{
  "type": "FeatureCollection",
  "features": [
    {
      "type": "Feature",
      "geometry": {
        "type": "Point",
        "coordinates": [
          73.0603342,
          33.722067800000005
        ]
      },
      "properties": {
        "id": 254665431,
        "name": "تھانہ کوہسار",
        "addr:city": "اسلام آباد",
        "addr:city:ar": "إسلام آباد",
        "addr:city:en": "Islamabad",
        "addr:city:ks": "اِسلام آبادٖ",
        "addr:city:pnb": "اسلام آباد",
        "addr:city:ps": "اسلام آباد",
        "addr:city:sd": "اسلام آباد",
        "addr:city:ur": "اسلام آباد",
        "addr:street": "Bhitai Road",
        "amenity": "police",
        "name:en": "Kohsar Police Station"
      }
    },
    {
      "type": "Feature",
      "geometry": {
        "type": "Point",
        "coordinates": [
          73.0597372,
          33.6994994
        ]
      },
      "properties": {
        "id": 255913888,
        "name": "Rescue 15",
        "addr:city": "اسلام آباد",
        "addr:city:ar": "إسلام آباد",
        "addr:city:en": "Islamabad",
        "addr:city:ks": "اِسلام آبادٖ",
        "addr:city:pnb": "اسلام آباد",
        "addr:city:ps": "اسلام آباد",
        "addr:city:sd": "اسلام آباد",
        "addr:city:ur": "اسلام آباد",
        "addr:street": "Service Road East G8",
        "amenity": "police"
      }
    },
    {
      "type": "Feature",
      "geometry": {
        "type": "Point",
        "coordinates": [
          74.39405190000001,
          31.4740904
        ]
      },
      "properties": {
        "id": 271075820,
        "name": "DHA Police Station",
        "amenity": "police"
      }
    },
    {
      "type": "Feature",
      "geometry": {
        "type": "Point",
        "coordinates": [
          73.04036450000001,
          33.7092748
        ]
      },
      "properties": {
        "id": 271790194,
        "name": "Margalla Police Station",
        "addr:city": "اسلام آباد",
        "addr:city:ar": "إسلام آباد",
        "addr:city:en": "Islamabad",
        "addr:city:ks": "اِسلام آبادٖ",
        "addr:city:pnb": "اسلام آباد",
        "addr:city:ps": "اسلام آباد",
        "addr:city:sd": "اسلام آباد",
        "addr:city:ur": "اسلام آباد",
        "addr:street": "Kaghan Road",
        "amenity": "police"
      }
    },
    {
      "type": "Feature",
      "geometry": {
        "type": "Point",
        "coordinates": [
          72.93581760000001,
          33.9991265
        ]
      },
      "properties": {
        "id": 297482850,
        "name": "Police Station Haripur",
        "amenity": "police"
      }
    },
    {
      "type": "Feature",
      "geometry": {
        "type": "Point",
        "coordinates": [
          74.6116645,
          36.3055527
        ]
      },
      "properties": {
        "id": 444597755,
        "name": "Unnamed",
        "amenity": "police"
      }
    },
    {
      "type": "Feature",
      "geometry": {
        "type": "Point",
        "coordinates": [
          72.75601830000001,
          33.7705283
        ]
      },
      "properties": {
        "id": 565347462,
        "name": "Wah Police Station",
        "amenity": "police"
      }
    },
    {
      "type": "Feature",
      "geometry": {
        "type": "Point",
        "coordinates": [
          67.05943620000001,
          24.827559100000002
        ]
      },
      "properties": {
        "id": 596199609,
        "name": "Gizri Police Station",
        "addr:city": "Karachi",
        "addr:country": "PK",
        "addr:place": "DHA Phase 4",
        "addr:province": "Sindh",
        "amenity": "police"
      }
    },
    {
      "type": "Feature",
      "geometry": {
        "type": "Point",
        "coordinates": [
          67.72313100000001,
          30.383735800000004
        ]
      },
      "properties": {
        "id": 740568336,
        "name": "تھانہ",
        "amenity": "police",
        "name:ar": "قسم الأمن",
        "name:en": "Police Station",
        "name:ur": "تھانہ"
      }
    },
    {
      "type": "Feature",
      "geometry": {
        "type": "Point",
        "coordinates": [
          71.7893154,
          35.8537267
        ]
      },
      "properties": {
        "id": 747660061,
        "name": "Foreigners Registration Office",
        "amenity": "police"
      }
    },
    {
      "type": "Feature",
      "geometry": {
        "type": "Point",
        "coordinates": [
          73.0340189,
          33.6158263
        ]
      },
      "properties": {
        "id": 914229793,
        "name": "locoshed police chowki",
        "amenity": "police"
      }
    },
    {
      "type": "Feature",
      "geometry": {
        "type": "Point",
        "coordinates": [
          68.85740990000001,
          27.705132300000002
        ]
      },
      "properties": {
        "id": 954015975,
        "name": "Police Station New Pind",
        "addr:city": "Sukkur",
        "addr:street": "New Pind Road",
        "amenity": "police"
      }
    },
    {
      "type": "Feature",
      "geometry": {
        "type": "Point",
        "coordinates": [
          73.06645540000001,
          31.424314900000002
        ]
      },
      "properties": {
        "id": 1068779625,
        "name": "Gulberg Police Station",
        "addr:city": "فیصل آباد",
        "addr:city:en": "Faisalabad",
        "addr:city:fr": "Faisalabad",
        "addr:city:pa": "ਫ਼ੈਸਲਾਬਾਦ",
        "addr:city:pnb": "فیصل آباد",
        "addr:city:ur": "فیصل آباد",
        "addr:street": "Gulberg Thana Road",
        "amenity": "police"
      }
    },
    {
      "type": "Feature",
      "geometry": {
        "type": "Point",
        "coordinates": [
          68.3620951,
          25.362718100000002
        ]
      },
      "properties": {
        "id": 1088958650,
        "name": "A-Section Police Station",
        "addr:city": "حیدرآباد",
        "addr:city:en": "Hyderabad",
        "addr:city:fr": "Hyderâbâd",
        "addr:city:pa": "ਹੈਦਰਾਬਾਦ",
        "addr:city:ur": "حیدرآباد",
        "addr:street": "AIRPORT ROAD",
        "amenity": "police"
      }
    },
    {
      "type": "Feature",
      "geometry": {
        "type": "Point",
        "coordinates": [
          68.3506188,
          25.363223400000003
        ]
      },
      "properties": {
        "id": 1089008363,
        "name": "RANGERS",
        "addr:city": "حیدرآباد",
        "addr:city:en": "Hyderabad",
        "addr:city:fr": "Hyderâbâd",
        "addr:city:pa": "ਹੈਦਰਾਬਾਦ",
        "addr:city:ur": "حیدرآباد",
        "addr:street": "Board Office Road",
        "amenity": "police"
      }
    },
    {
      "type": "Feature",
      "geometry": {
        "type": "Point",
        "coordinates": [
          68.3492696,
          25.362343600000003
        ]
      },
      "properties": {
        "id": 1089008376,
        "name": "Police Station B-Section",
        "addr:city": "حیدرآباد",
        "addr:city:en": "Hyderabad",
        "addr:city:fr": "Hyderâbâd",
        "addr:city:pa": "ਹੈਦਰਾਬਾਦ",
        "addr:city:ur": "حیدرآباد",
        "addr:street": "Board Office Road",
        "amenity": "police"
      }
    },
    {
      "type": "Feature",
      "geometry": {
        "type": "Point",
        "coordinates": [
          68.3439204,
          25.376303500000002
        ]
      },
      "properties": {
        "id": 1096971816,
        "name": "Women Police Station",
        "addr:city": "حیدرآباد",
        "addr:city:en": "Hyderabad",
        "addr:city:fr": "Hyderâbâd",
        "addr:city:pa": "ਹੈਦਰਾਬਾਦ",
        "addr:city:ur": "حیدرآباد",
        "addr:street": "Autobhan Road",
        "amenity": "police"
      }
    },
    {
      "type": "Feature",
      "geometry": {
        "type": "Point",
        "coordinates": [
          68.3131881,
          25.367551700000003
        ]
      },
      "properties": {
        "id": 1097706325,
        "name": "Kotri Police Station",
        "addr:city": "Kotri",
        "addr:street": "National Highway",
        "amenity": "police"
      }
    },
    {
      "type": "Feature",
      "geometry": {
        "type": "Point",
        "coordinates": [
          74.3200365,
          31.572242400000004
        ]
      },
      "properties": {
        "id": 1097710476,
        "name": "Gawalmandi Police Station",
        "amenity": "police"
      }
    },
    {
      "type": "Feature",
      "geometry": {
        "type": "Point",
        "coordinates": [
          68.348477,
          25.382610500000002
        ]
      },
      "properties": {
        "id": 1099412411,
        "name": "Emergency 15 - madadgar police",
        "addr:city": "حیدرآباد",
        "addr:city:en": "Hyderabad",
        "addr:city:fr": "Hyderâbâd",
        "addr:city:pa": "ਹੈਦਰਾਬਾਦ",
        "addr:city:ur": "حیدرآباد",
        "addr:street": "THANDI SARAK",
        "amenity": "police"
      }
    },
    {
      "type": "Feature",
      "geometry": {
        "type": "Point",
        "coordinates": [
          68.36522570000001,
          25.385731000000003
        ]
      },
      "properties": {
        "id": 1101289129,
        "name": "Unnamed",
        "amenity": "police"
      }
    },
    {
      "type": "Feature",
      "geometry": {
        "type": "Point",
        "coordinates": [
          71.872004,
          34.112867900000005
        ]
      },
      "properties": {
        "id": 1223036721,
        "name": "Unnamed",
        "amenity": "police"
      }
    },
    {
      "type": "Feature",
      "geometry": {
        "type": "Point",
        "coordinates": [
          71.8120585,
          34.1259755
        ]
      },
      "properties": {
        "id": 1223044948,
        "name": "Unnamed",
        "amenity": "police"
      }
    },
    {
      "type": "Feature",
      "geometry": {
        "type": "Point",
        "coordinates": [
          71.4909351,
          33.9978386
        ]
      },
      "properties": {
        "id": 1223966087,
        "name": "Town Police Station",
        "amenity": "police"
      }
    },
    {
      "type": "Feature",
      "geometry": {
        "type": "Point",
        "coordinates": [
          71.43714390000001,
          33.9930236
        ]
      },
      "properties": {
        "id": 1224404664,
        "name": "FIA Headquarters Peshawar",
        "amenity": "police"
      }
    },
    {
      "type": "Feature",
      "geometry": {
        "type": "Point",
        "coordinates": [
          71.44317840000001,
          33.982462600000005
        ]
      },
      "properties": {
        "id": 1224854852,
        "name": "Hayatabad Police Station",
        "amenity": "police"
      }
    },
    {
      "type": "Feature",
      "geometry": {
        "type": "Point",
        "coordinates": [
          71.43923020000001,
          33.9729429
        ]
      },
      "properties": {
        "id": 1224866279,
        "name": "SDPO Office",
        "amenity": "police"
      }
    },
    {
      "type": "Feature",
      "geometry": {
        "type": "Point",
        "coordinates": [
          71.55612380000001,
          34.009496600000006
        ]
      },
      "properties": {
        "id": 1226368131,
        "name": "Central Police Office",
        "amenity": "police"
      }
    },
    {
      "type": "Feature",
      "geometry": {
        "type": "Point",
        "coordinates": [
          73.0545853,
          33.6121465
        ]
      },
      "properties": {
        "id": 1361318336,
        "name": "Unnamed",
        "amenity": "police"
      }
    },
    {
      "type": "Feature",
      "geometry": {
        "type": "Point",
        "coordinates": [
          74.29157230000001,
          31.519366100000003
        ]
      },
      "properties": {
        "id": 1539352937,
        "name": "Ait police station",
        "amenity": "police"
      }
    },
    {
      "type": "Feature",
      "geometry": {
        "type": "Point",
        "coordinates": [
          73.131516,
          33.605593400000004
        ]
      },
      "properties": {
        "id": 1548376187,
        "name": "Koral Police Station",
        "amenity": "police"
      }
    },
    {
      "type": "Feature",
      "geometry": {
        "type": "Point",
        "coordinates": [
          71.9096303,
          29.6203232
        ]
      },
      "properties": {
        "id": 1811291326,
        "name": "تھانہ",
        "amenity": "police",
        "name:ar": "قسم الأمن",
        "name:en": "Police Station",
        "name:ur": "تھانہ"
      }
    },
    {
      "type": "Feature",
      "geometry": {
        "type": "Point",
        "coordinates": [
          71.46379,
          30.200837000000003
        ]
      },
      "properties": {
        "id": 1921952545,
        "name": "Chahelek Police Station",
        "addr:city": "ملتان",
        "addr:street": "Kacheri Rd",
        "amenity": "police"
      }
    },
    {
      "type": "Feature",
      "geometry": {
        "type": "Point",
        "coordinates": [
          71.465485,
          30.196588000000002
        ]
      },
      "properties": {
        "id": 1921952897,
        "name": "فاطمہ جناح ہسپتال",
        "addr:city": "ملتان",
        "amenity": "police",
        "name:en": "Fatima Jinnah Hospital",
        "name:ur": "فاطمہ جناح ہسپتال"
      }
    },
    {
      "type": "Feature",
      "geometry": {
        "type": "Point",
        "coordinates": [
          71.494625,
          30.162213
        ]
      },
      "properties": {
        "id": 1921954028,
        "name": "Mumtazabad Police",
        "addr:city": "ملتان",
        "amenity": "police"
      }
    },
    {
      "type": "Feature",
      "geometry": {
        "type": "Point",
        "coordinates": [
          71.46943300000001,
          30.189593000000002
        ]
      },
      "properties": {
        "id": 1921954109,
        "name": "Police Station Harram Gate",
        "addr:city": "ملتان",
        "amenity": "police"
      }
    },
    {
      "type": "Feature",
      "geometry": {
        "type": "Point",
        "coordinates": [
          71.4737518,
          30.1991763
        ]
      },
      "properties": {
        "id": 1921954110,
        "name": "Police Station Qilla Kohna",
        "addr:city": "ملتان",
        "amenity": "police"
      }
    },
    {
      "type": "Feature",
      "geometry": {
        "type": "Point",
        "coordinates": [
          71.436925,
          30.188134
        ]
      },
      "properties": {
        "id": 1921954111,
        "name": "Police Station Sadr",
        "addr:city": "ملتان",
        "amenity": "police"
      }
    },
    {
      "type": "Feature",
      "geometry": {
        "type": "Point",
        "coordinates": [
          70.630374,
          30.052285
        ]
      },
      "properties": {
        "id": 1927270798,
        "name": "DSP Office",
        "amenity": "police"
      }
    },
    {
      "type": "Feature",
      "geometry": {
        "type": "Point",
        "coordinates": [
          70.630589,
          30.053058000000004
        ]
      },
      "properties": {
        "id": 1927270818,
        "name": "تھانہ",
        "amenity": "police",
        "name:ar": "قسم الأمن",
        "name:en": "Police Station",
        "name:ur": "تھانہ"
      }
    },
    {
      "type": "Feature",
      "geometry": {
        "type": "Point",
        "coordinates": [
          70.633249,
          30.062628000000004
        ]
      },
      "properties": {
        "id": 1927270819,
        "name": "Police staton",
        "amenity": "police"
      }
    },
    {
      "type": "Feature",
      "geometry": {
        "type": "Point",
        "coordinates": [
          73.09454210000001,
          33.6419854
        ]
      },
      "properties": {
        "id": 2027831387,
        "name": "Police Station Sadiqabad",
        "amenity": "police",
        "source": "Physical suvey -- SaafPindi"
      }
    },
    {
      "type": "Feature",
      "geometry": {
        "type": "Point",
        "coordinates": [
          73.1461749,
          33.5589401
        ]
      },
      "properties": {
        "id": 2381268153,
        "name": "CBR Polie Station",
        "amenity": "police"
      }
    },
    {
      "type": "Feature",
      "geometry": {
        "type": "Point",
        "coordinates": [
          73.0450876,
          33.5889997
        ]
      },
      "properties": {
        "id": 2387018725,
        "name": "R A Bazaar",
        "amenity": "police"
      }
    },
    {
      "type": "Feature",
      "geometry": {
        "type": "Point",
        "coordinates": [
          73.0328937,
          33.602208000000005
        ]
      },
      "properties": {
        "id": 2396099153,
        "name": "Rawalpindi Traffic Police",
        "amenity": "police"
      }
    },
    {
      "type": "Feature",
      "geometry": {
        "type": "Point",
        "coordinates": [
          73.0585559,
          33.581881800000005
        ]
      },
      "properties": {
        "id": 2456743412,
        "name": "Lal Kurti",
        "amenity": "police"
      }
    },
    {
      "type": "Feature",
      "geometry": {
        "type": "Point",
        "coordinates": [
          71.4752852,
          33.5714613
        ]
      },
      "properties": {
        "id": 2523325116,
        "name": "R T W - Kohat -Police Training",
        "amenity": "police"
      }
    },
    {
      "type": "Feature",
      "geometry": {
        "type": "Point",
        "coordinates": [
          73.05758080000001,
          33.6035612
        ]
      },
      "properties": {
        "id": 2640808579,
        "name": "Gawalmandi Police Chowki",
        "amenity": "police"
      }
    },
    {
      "type": "Feature",
      "geometry": {
        "type": "Point",
        "coordinates": [
          73.0635355,
          33.5997889
        ]
      },
      "properties": {
        "id": 2640862164,
        "name": "Police Chowki",
        "amenity": "police"
      }
    },
    {
      "type": "Feature",
      "geometry": {
        "type": "Point",
        "coordinates": [
          72.2173231,
          33.9686815
        ]
      },
      "properties": {
        "id": 2653594338,
        "name": "Jehangira Police Station",
        "amenity": "police"
      }
    },
    {
      "type": "Feature",
      "geometry": {
        "type": "Point",
        "coordinates": [
          72.897384,
          35.0387251
        ]
      },
      "properties": {
        "id": 2880381191,
        "name": "Police Station Ranolia Bazar Dubair",
        "amenity": "police",
        "source": "Wikimapia",
        "source:imagery": "MapBox Satellite"
      }
    },
    {
      "type": "Feature",
      "geometry": {
        "type": "Point",
        "coordinates": [
          72.473965,
          34.124631
        ]
      },
      "properties": {
        "id": 2892738637,
        "name": "Police Station Swabi",
        "amenity": "police"
      }
    },
    {
      "type": "Feature",
      "geometry": {
        "type": "Point",
        "coordinates": [
          72.45711220000001,
          34.079267300000005
        ]
      },
      "properties": {
        "id": 2894922804,
        "name": "Police Line",
        "amenity": "police"
      }
    },
    {
      "type": "Feature",
      "geometry": {
        "type": "Point",
        "coordinates": [
          72.2564239,
          34.1786377
        ]
      },
      "properties": {
        "id": 2894953227,
        "name": "Police Station Yarhussain",
        "addr:city": "Swabi, Yarhussain",
        "addr:street": "Yarhussain - Dobian Road",
        "amenity": "police"
      }
    },
    {
      "type": "Feature",
      "geometry": {
        "type": "Point",
        "coordinates": [
          70.64235190000001,
          30.701773900000003
        ]
      },
      "properties": {
        "id": 2899974187,
        "name": "Thana Taunsa",
        "amenity": "police"
      }
    },
    {
      "type": "Feature",
      "geometry": {
        "type": "Point",
        "coordinates": [
          73.09665840000001,
          31.394203600000004
        ]
      },
      "properties": {
        "id": 2912520678,
        "name": "Batala Colony Police Station",
        "addr:city": "فیصل آباد",
        "addr:city:en": "Faisalabad",
        "addr:city:fr": "Faisalabad",
        "addr:city:pa": "ਫ਼ੈਸਲਾਬਾਦ",
        "addr:city:pnb": "فیصل آباد",
        "addr:city:ur": "فیصل آباد",
        "addr:street": "Fowara Chowk",
        "amenity": "police"
      }
    },
    {
      "type": "Feature",
      "geometry": {
        "type": "Point",
        "coordinates": [
          73.1089594,
          31.416670000000003
        ]
      },
      "properties": {
        "id": 2913717421,
        "name": "Peoples Colony Police Station",
        "addr:city": "فیصل آباد",
        "addr:city:en": "Faisalabad",
        "addr:city:fr": "Faisalabad",
        "addr:city:pa": "ਫ਼ੈਸਲਾਬਾਦ",
        "addr:city:pnb": "فیصل آباد",
        "addr:city:ur": "فیصل آباد",
        "addr:street": "Jaranwala Road",
        "amenity": "police"
      }
    },
    {
      "type": "Feature",
      "geometry": {
        "type": "Point",
        "coordinates": [
          73.10978820000001,
          31.417572200000002
        ]
      },
      "properties": {
        "id": 2913718201,
        "name": "Traffic Police Testing Site",
        "addr:city": "فیصل آباد",
        "addr:city:en": "Faisalabad",
        "addr:city:fr": "Faisalabad",
        "addr:city:pa": "ਫ਼ੈਸਲਾਬਾਦ",
        "addr:city:pnb": "فیصل آباد",
        "addr:city:ur": "فیصل آباد",
        "addr:street": "Jaranwala Road",
        "amenity": "police"
      }
    },
    {
      "type": "Feature",
      "geometry": {
        "type": "Point",
        "coordinates": [
          73.0765822,
          31.421440900000004
        ]
      },
      "properties": {
        "id": 2913746353,
        "name": "Police Station Kotwali Road",
        "amenity": "police"
      }
    },
    {
      "type": "Feature",
      "geometry": {
        "type": "Point",
        "coordinates": [
          73.4493716,
          31.5681441
        ]
      },
      "properties": {
        "id": 2913900002,
        "name": "Petrolling Post",
        "amenity": "police"
      }
    },
    {
      "type": "Feature",
      "geometry": {
        "type": "Point",
        "coordinates": [
          73.50948000000001,
          31.581079000000003
        ]
      },
      "properties": {
        "id": 2913901992,
        "name": "Police Station Shahkot",
        "amenity": "police"
      }
    },
    {
      "type": "Feature",
      "geometry": {
        "type": "Point",
        "coordinates": [
          72.3606153,
          33.7720707
        ]
      },
      "properties": {
        "id": 2923637041,
        "name": "Attock Police Station",
        "amenity": "police"
      }
    },
    {
      "type": "Feature",
      "geometry": {
        "type": "Point",
        "coordinates": [
          74.32366280000001,
          31.558017100000004
        ]
      },
      "properties": {
        "id": 2944220295,
        "name": "Civil Lines Police Station",
        "amenity": "police"
      }
    },
    {
      "type": "Feature",
      "geometry": {
        "type": "Point",
        "coordinates": [
          74.31887730000001,
          31.591264400000004
        ]
      },
      "properties": {
        "id": 2952892667,
        "name": "Lari Adda Police Station",
        "amenity": "police"
      }
    },
    {
      "type": "Feature",
      "geometry": {
        "type": "Point",
        "coordinates": [
          73.21294680000001,
          34.146502700000006
        ]
      },
      "properties": {
        "id": 3084337279,
        "name": "Police Station, Cantt.",
        "addr:city": "Abbottabad",
        "addr:street": "Jinnah Road",
        "amenity": "police"
      }
    },
    {
      "type": "Feature",
      "geometry": {
        "type": "Point",
        "coordinates": [
          73.22391350000001,
          34.167622200000004
        ]
      },
      "properties": {
        "id": 3097611097,
        "name": "Sikanderabad Police Station",
        "addr:city": "Abbottabad",
        "addr:neighbourhood": "Sikandarabad",
        "addr:suburb": "Jhangi",
        "amenity": "police"
      }
    },
    {
      "type": "Feature",
      "geometry": {
        "type": "Point",
        "coordinates": [
          73.2408121,
          34.1918547
        ]
      },
      "properties": {
        "id": 3124216510,
        "name": "Jinahabad Police Station",
        "amenity": "police"
      }
    },
    {
      "type": "Feature",
      "geometry": {
        "type": "Point",
        "coordinates": [
          71.43016320000001,
          33.5018565
        ]
      },
      "properties": {
        "id": 3234022214,
        "name": "New Police station - Chambi",
        "amenity": "police"
      }
    },
    {
      "type": "Feature",
      "geometry": {
        "type": "Point",
        "coordinates": [
          71.45151670000001,
          33.5257969
        ]
      },
      "properties": {
        "id": 3234035006,
        "name": "Jarma Police Station",
        "amenity": "police"
      }
    },
    {
      "type": "Feature",
      "geometry": {
        "type": "Point",
        "coordinates": [
          72.3577836,
          33.7843074
        ]
      },
      "properties": {
        "id": 3456861294,
        "name": "Anti-Narcutics Force",
        "amenity": "police"
      }
    },
    {
      "type": "Feature",
      "geometry": {
        "type": "Point",
        "coordinates": [
          73.35075680000001,
          34.547281500000004
        ]
      },
      "properties": {
        "id": 3522665221,
        "name": "تھانہ",
        "amenity": "police",
        "name:ar": "قسم الأمن",
        "name:en": "Police Station",
        "name:ur": "تھانہ"
      }
    },
    {
      "type": "Feature",
      "geometry": {
        "type": "Point",
        "coordinates": [
          73.10583790000001,
          30.663241100000004
        ]
      },
      "properties": {
        "id": 3718795707,
        "name": "Unnamed",
        "amenity": "police"
      }
    },
    {
      "type": "Feature",
      "geometry": {
        "type": "Point",
        "coordinates": [
          74.7620662,
          32.235244800000004
        ]
      },
      "properties": {
        "id": 3744159960,
        "name": "Police Station (Ahmad Abad)",
        "amenity": "police"
      }
    },
    {
      "type": "Feature",
      "geometry": {
        "type": "Point",
        "coordinates": [
          67.02903160000001,
          24.8136295
        ]
      },
      "properties": {
        "id": 3813611062,
        "name": "Police Station Clifton",
        "addr:city": "Karachi",
        "addr:country": "PK",
        "addr:street": "Hatim Alvi Road",
        "addr:suburb": "Clifton",
        "amenity": "police"
      }
    },
    {
      "type": "Feature",
      "geometry": {
        "type": "Point",
        "coordinates": [
          73.75777330000001,
          32.8987071
        ]
      },
      "properties": {
        "id": 3820865881,
        "name": "Sarai Alamgir Police Station",
        "amenity": "police"
      }
    },
    {
      "type": "Feature",
      "geometry": {
        "type": "Point",
        "coordinates": [
          74.1440804,
          32.313962800000006
        ]
      },
      "properties": {
        "id": 3823033580,
        "name": "Ghakhar Police Station",
        "amenity": "police",
        "operator": "Punjab Police"
      }
    },
    {
      "type": "Feature",
      "geometry": {
        "type": "Point",
        "coordinates": [
          72.02389880000001,
          33.4388536
        ]
      },
      "properties": {
        "id": 3882639559,
        "name": "تھانہ",
        "amenity": "police",
        "name:ar": "قسم الأمن",
        "name:en": "Police Station",
        "name:ur": "تھانہ"
      }
    },
    {
      "type": "Feature",
      "geometry": {
        "type": "Point",
        "coordinates": [
          71.9240489,
          33.4801653
        ]
      },
      "properties": {
        "id": 3882688193,
        "name": "Unnamed",
        "amenity": "police"
      }
    },
    {
      "type": "Feature",
      "geometry": {
        "type": "Point",
        "coordinates": [
          71.89634880000001,
          33.481708000000005
        ]
      },
      "properties": {
        "id": 3882688215,
        "name": "Unnamed",
        "amenity": "police"
      }
    },
    {
      "type": "Feature",
      "geometry": {
        "type": "Point",
        "coordinates": [
          67.1565315,
          24.940364900000002
        ]
      },
      "properties": {
        "id": 3953103757,
        "name": "Sachal Police Station",
        "amenity": "police"
      }
    },
    {
      "type": "Feature",
      "geometry": {
        "type": "Point",
        "coordinates": [
          67.1474984,
          24.923289
        ]
      },
      "properties": {
        "id": 3958987605,
        "name": "Police Station (Gulistan e Jauhar)",
        "amenity": "police"
      }
    },
    {
      "type": "Feature",
      "geometry": {
        "type": "Point",
        "coordinates": [
          73.35820240000001,
          36.073569600000006
        ]
      },
      "properties": {
        "id": 3995199743,
        "name": "تھانہ",
        "amenity": "police",
        "name:ar": "قسم الأمن",
        "name:en": "Police Station",
        "name:ur": "تھانہ"
      }
    },
    {
      "type": "Feature",
      "geometry": {
        "type": "Point",
        "coordinates": [
          71.88675930000001,
          35.6367168
        ]
      },
      "properties": {
        "id": 3996641267,
        "name": "Police check post",
        "amenity": "police"
      }
    },
    {
      "type": "Feature",
      "geometry": {
        "type": "Point",
        "coordinates": [
          71.77443960000001,
          35.735379
        ]
      },
      "properties": {
        "id": 3999019890,
        "name": "Police Check Post",
        "amenity": "police"
      }
    },
    {
      "type": "Feature",
      "geometry": {
        "type": "Point",
        "coordinates": [
          71.7975234,
          35.885415200000004
        ]
      },
      "properties": {
        "id": 4004136814,
        "name": "Police",
        "amenity": "police"
      }
    },
    {
      "type": "Feature",
      "geometry": {
        "type": "Point",
        "coordinates": [
          73.4113506,
          36.250472200000004
        ]
      },
      "properties": {
        "id": 4012152076,
        "name": "تھانہ",
        "amenity": "police",
        "name:ar": "قسم الأمن",
        "name:en": "Police Station",
        "name:ur": "تھانہ"
      }
    },
    {
      "type": "Feature",
      "geometry": {
        "type": "Point",
        "coordinates": [
          73.3301704,
          36.377826500000005
        ]
      },
      "properties": {
        "id": 4013954231,
        "name": "تھانہ",
        "amenity": "police",
        "name:ar": "قسم الأمن",
        "name:en": "Police Station",
        "name:ur": "تھانہ"
      }
    },
    {
      "type": "Feature",
      "geometry": {
        "type": "Point",
        "coordinates": [
          72.2217811,
          36.306117
        ]
      },
      "properties": {
        "id": 4014368608,
        "name": "تھانہ",
        "amenity": "police",
        "name:ar": "قسم الأمن",
        "name:en": "Police Station",
        "name:ur": "تھانہ"
      }
    },
    {
      "type": "Feature",
      "geometry": {
        "type": "Point",
        "coordinates": [
          72.4060304,
          36.433824900000005
        ]
      },
      "properties": {
        "id": 4019881842,
        "name": "تھانہ",
        "amenity": "police",
        "name:ar": "قسم الأمن",
        "name:en": "Police Station",
        "name:ur": "تھانہ"
      }
    },
    {
      "type": "Feature",
      "geometry": {
        "type": "Point",
        "coordinates": [
          74.53652480000001,
          36.2642036
        ]
      },
      "properties": {
        "id": 4025489834,
        "name": "Unnamed",
        "amenity": "police"
      }
    },
    {
      "type": "Feature",
      "geometry": {
        "type": "Point",
        "coordinates": [
          74.3573767,
          31.533255600000004
        ]
      },
      "properties": {
        "id": 4109174594,
        "name": "آفس قربان لائن",
        "addr:city": "لاہور",
        "addr:street": "جیل روڈ",
        "amenity": "police",
        "name:en": "Office Qurban Line",
        "name:ur": "آفس قربان لائن",
        "opening_hours": "24/7"
      }
    },
    {
      "type": "Feature",
      "geometry": {
        "type": "Point",
        "coordinates": [
          71.9723778,
          34.0137237
        ]
      },
      "properties": {
        "id": 4142371391,
        "name": "Police",
        "addr:street": "Abakhel",
        "amenity": "police",
        "name:ar": "شرطة"
      }
    },
    {
      "type": "Feature",
      "geometry": {
        "type": "Point",
        "coordinates": [
          73.21919150000001,
          34.155982300000005
        ]
      },
      "properties": {
        "id": 4149870156,
        "name": "Baloch centre ARMY",
        "addr:street": "Karakoram Highway",
        "amenity": "police",
        "name:en": "Balouch Army Mess"
      }
    },
    {
      "type": "Feature",
      "geometry": {
        "type": "Point",
        "coordinates": [
          73.22341060000001,
          34.162094200000006
        ]
      },
      "properties": {
        "id": 4149886312,
        "name": "Army Topo School Engrs",
        "amenity": "police"
      }
    },
    {
      "type": "Feature",
      "geometry": {
        "type": "Point",
        "coordinates": [
          73.02543,
          33.6376913
        ]
      },
      "properties": {
        "id": 4157178391,
        "name": "police station",
        "amenity": "police"
      }
    },
    {
      "type": "Feature",
      "geometry": {
        "type": "Point",
        "coordinates": [
          67.0563836,
          24.937831100000004
        ]
      },
      "properties": {
        "id": 4166731920,
        "name": "Taimuria Police Station",
        "amenity": "police"
      }
    },
    {
      "type": "Feature",
      "geometry": {
        "type": "Point",
        "coordinates": [
          67.0562252,
          24.937646800000003
        ]
      },
      "properties": {
        "id": 4166731921,
        "name": "Hyderi Market Police Station",
        "amenity": "police"
      }
    },
    {
      "type": "Feature",
      "geometry": {
        "type": "Point",
        "coordinates": [
          71.4194453,
          33.959382600000005
        ]
      },
      "properties": {
        "id": 4186870399,
        "name": "Hayatabad Police Station ",
        "amenity": "police"
      }
    },
    {
      "type": "Feature",
      "geometry": {
        "type": "Point",
        "coordinates": [
          71.43285080000001,
          33.9485103
        ]
      },
      "properties": {
        "id": 4186870400,
        "name": "FC Headquarters Hayatabad ",
        "amenity": "police"
      }
    },
    {
      "type": "Feature",
      "geometry": {
        "type": "Point",
        "coordinates": [
          71.43300110000001,
          33.9610071
        ]
      },
      "properties": {
        "id": 4186882189,
        "name": "police checkpoint ",
        "amenity": "police"
      }
    },
    {
      "type": "Feature",
      "geometry": {
        "type": "Point",
        "coordinates": [
          65.41315080000001,
          28.579853300000003
        ]
      },
      "properties": {
        "id": 4222956691,
        "name": "Unnamed",
        "addr:city": "خاران",
        "addr:city:ar": "خاران",
        "addr:city:fa": "خاران",
        "addr:city:pnb": "خاران",
        "addr:city:ur": "خاران",
        "amenity": "police"
      }
    },
    {
      "type": "Feature",
      "geometry": {
        "type": "Point",
        "coordinates": [
          73.4664345,
          34.34476170000001
        ]
      },
      "properties": {
        "id": 4232257373,
        "name": "Unnamed",
        "amenity": "police"
      }
    },
    {
      "type": "Feature",
      "geometry": {
        "type": "Point",
        "coordinates": [
          74.31082310000001,
          31.514976100000002
        ]
      },
      "properties": {
        "id": 4239103099,
        "name": "تھانہ",
        "addr:street": "Wahat Rd Qarter",
        "amenity": "police",
        "name:ar": "قسم الأمن",
        "name:en": "Police Station",
        "name:ur": "تھانہ"
      }
    },
    {
      "type": "Feature",
      "geometry": {
        "type": "Point",
        "coordinates": [
          72.2815085,
          34.346700600000005
        ]
      },
      "properties": {
        "id": 4240021189,
        "name": "police station Rustam",
        "amenity": "police"
      }
    },
    {
      "type": "Feature",
      "geometry": {
        "type": "Point",
        "coordinates": [
          71.2540371,
          29.1444794
        ]
      },
      "properties": {
        "id": 4262711493,
        "name": "Unnamed",
        "amenity": "police"
      }
    },
    {
      "type": "Feature",
      "geometry": {
        "type": "Point",
        "coordinates": [
          73.49438930000001,
          34.118156600000006
        ]
      },
      "properties": {
        "id": 4269770698,
        "name": "Khohala Police Post",
        "amenity": "police"
      }
    },
    {
      "type": "Feature",
      "geometry": {
        "type": "Point",
        "coordinates": [
          71.4761132,
          33.9248351
        ]
      },
      "properties": {
        "id": 4290877893,
        "name": "Sarband Police Station",
        "amenity": "police"
      }
    },
    {
      "type": "Feature",
      "geometry": {
        "type": "Point",
        "coordinates": [
          73.50544860000001,
          32.2973453
        ]
      },
      "properties": {
        "id": 4291267836,
        "name": "Unnamed",
        "amenity": "police"
      }
    },
    {
      "type": "Feature",
      "geometry": {
        "type": "Point",
        "coordinates": [
          71.2261891,
          30.778457000000003
        ]
      },
      "properties": {
        "id": 4294608997,
        "name": "Police Station Sarwar Shaheed",
        "amenity": "police"
      }
    },
    {
      "type": "Feature",
      "geometry": {
        "type": "Point",
        "coordinates": [
          71.28069780000001,
          30.0761566
        ]
      },
      "properties": {
        "id": 4294617493,
        "name": "Police Check Post",
        "amenity": "police"
      }
    },
    {
      "type": "Feature",
      "geometry": {
        "type": "Point",
        "coordinates": [
          71.2232637,
          30.8035953
        ]
      },
      "properties": {
        "id": 4294645194,
        "name": "Highway police 1122",
        "amenity": "police"
      }
    },
    {
      "type": "Feature",
      "geometry": {
        "type": "Point",
        "coordinates": [
          67.3372729,
          24.8633196
        ]
      },
      "properties": {
        "id": 4299884589,
        "name": "Steel Town Police Station",
        "amenity": "police"
      }
    },
    {
      "type": "Feature",
      "geometry": {
        "type": "Point",
        "coordinates": [
          73.2572415,
          29.999711500000004
        ]
      },
      "properties": {
        "id": 4303511684,
        "name": "City police station",
        "amenity": "police"
      }
    },
    {
      "type": "Feature",
      "geometry": {
        "type": "Point",
        "coordinates": [
          71.68972950000001,
          32.426302
        ]
      },
      "properties": {
        "id": 4305135499,
        "name": "Police Station Wan Bhachran",
        "amenity": "police"
      }
    },
    {
      "type": "Feature",
      "geometry": {
        "type": "Point",
        "coordinates": [
          71.32941600000001,
          32.4502352
        ]
      },
      "properties": {
        "id": 4307380692,
        "name": "chashma check post",
        "amenity": "police"
      }
    },
    {
      "type": "Feature",
      "geometry": {
        "type": "Point",
        "coordinates": [
          73.1194931,
          31.4081219
        ]
      },
      "properties": {
        "id": 4316064590,
        "name": "Medicam Traffic Police Checkpost",
        "addr:street": "Jaranwala Road",
        "amenity": "police"
      }
    },
    {
      "type": "Feature",
      "geometry": {
        "type": "Point",
        "coordinates": [
          70.87283400000001,
          33.1079893
        ]
      },
      "properties": {
        "id": 4316820347,
        "name": "Latambar Police Station",
        "amenity": "police"
      }
    },
    {
      "type": "Feature",
      "geometry": {
        "type": "Point",
        "coordinates": [
          71.2847359,
          32.155596800000005
        ]
      },
      "properties": {
        "id": 4318297695,
        "name": "Police Station Kalir Kot",
        "amenity": "police"
      }
    },
    {
      "type": "Feature",
      "geometry": {
        "type": "Point",
        "coordinates": [
          71.51142180000001,
          33.968223
        ]
      },
      "properties": {
        "id": 4318963494,
        "name": "Pishtakha Police Station",
        "amenity": "police"
      }
    },
    {
      "type": "Feature",
      "geometry": {
        "type": "Point",
        "coordinates": [
          71.2148708,
          30.9552444
        ]
      },
      "properties": {
        "id": 4327442292,
        "name": "تھانہ",
        "amenity": "police",
        "name:ar": "قسم الأمن",
        "name:en": "Police Station",
        "name:ur": "تھانہ"
      }
    },
    {
      "type": "Feature",
      "geometry": {
        "type": "Point",
        "coordinates": [
          74.38016080000001,
          31.565719800000004
        ]
      },
      "properties": {
        "id": 4327625790,
        "name": "Mughalpura Police Station",
        "amenity": "police"
      }
    },
    {
      "type": "Feature",
      "geometry": {
        "type": "Point",
        "coordinates": [
          67.0351801,
          24.9424363
        ]
      },
      "properties": {
        "id": 4336539539,
        "name": "Police Station Shahrah e Noor Jahan",
        "addr:city": "Karachi",
        "addr:street": "Shahrah Noor Jahan",
        "amenity": "police"
      }
    },
    {
      "type": "Feature",
      "geometry": {
        "type": "Point",
        "coordinates": [
          74.2895338,
          31.620663500000003
        ]
      },
      "properties": {
        "id": 4339381992,
        "name": "Shahdara Police Station",
        "addr:city": "Shahdara",
        "addr:street": "Grand Trunk Road",
        "amenity": "police"
      }
    },
    {
      "type": "Feature",
      "geometry": {
        "type": "Point",
        "coordinates": [
          67.0130651,
          30.200528000000002
        ]
      },
      "properties": {
        "id": 4346721422,
        "name": "Traffic Police Office",
        "amenity": "police"
      }
    },
    {
      "type": "Feature",
      "geometry": {
        "type": "Point",
        "coordinates": [
          74.38051150000001,
          31.565670200000003
        ]
      },
      "properties": {
        "id": 4357839516,
        "name": "Unnamed",
        "addr:street": "Shalimar Link Rd",
        "amenity": "police",
        "opening_hours": "24/7"
      }
    },
    {
      "type": "Feature",
      "geometry": {
        "type": "Point",
        "coordinates": [
          71.26884100000001,
          32.387362800000005
        ]
      },
      "properties": {
        "id": 4362722400,
        "name": "Supper No 3 check post",
        "amenity": "police"
      }
    },
    {
      "type": "Feature",
      "geometry": {
        "type": "Point",
        "coordinates": [
          73.5749055,
          32.4285896
        ]
      },
      "properties": {
        "id": 4364282192,
        "name": "Police station",
        "amenity": "police",
        "name:en": "Police station",
        "phone": "0546596007"
      }
    },
    {
      "type": "Feature",
      "geometry": {
        "type": "Point",
        "coordinates": [
          74.4619521,
          31.514944700000004
        ]
      },
      "properties": {
        "id": 4373128291,
        "name": "barqi police",
        "amenity": "police",
        "name:en": "barqi police"
      }
    },
    {
      "type": "Feature",
      "geometry": {
        "type": "Point",
        "coordinates": [
          72.58018890000001,
          33.9358086
        ]
      },
      "properties": {
        "id": 4389422990,
        "name": "Unnamed",
        "amenity": "police"
      }
    },
    {
      "type": "Feature",
      "geometry": {
        "type": "Point",
        "coordinates": [
          74.8184274,
          36.7033992
        ]
      },
      "properties": {
        "id": 4392668692,
        "name": "Foreigner registration point for  Chapursan",
        "amenity": "police"
      }
    },
    {
      "type": "Feature",
      "geometry": {
        "type": "Point",
        "coordinates": [
          74.2994103,
          31.540257800000003
        ]
      },
      "properties": {
        "id": 4397119393,
        "name": "Samanabad Police Station",
        "addr:postcode": "54500",
        "addr:street": "Ghulam Nabi Road",
        "amenity": "police",
        "name:en": "Samanabad Police Station",
        "phone": "+924237584310"
      }
    },
    {
      "type": "Feature",
      "geometry": {
        "type": "Point",
        "coordinates": [
          71.0130905,
          30.1917435
        ]
      },
      "properties": {
        "id": 4397233879,
        "name": "police station mehmood kot",
        "amenity": "police"
      }
    },
    {
      "type": "Feature",
      "geometry": {
        "type": "Point",
        "coordinates": [
          71.40243380000001,
          33.9979182
        ]
      },
      "properties": {
        "id": 4411384289,
        "name": "Takhta baig checkpost",
        "amenity": "police"
      }
    },
    {
      "type": "Feature",
      "geometry": {
        "type": "Point",
        "coordinates": [
          74.1687218,
          31.387966100000003
        ]
      },
      "properties": {
        "id": 4427527451,
        "name": "Bahria Police Station",
        "amenity": "police"
      }
    },
    {
      "type": "Feature",
      "geometry": {
        "type": "Point",
        "coordinates": [
          71.2847114,
          32.4126386
        ]
      },
      "properties": {
        "id": 4435467389,
        "name": "Umer khel village",
        "amenity": "police",
        "name:en": "Umer khel village"
      }
    },
    {
      "type": "Feature",
      "geometry": {
        "type": "Point",
        "coordinates": [
          72.58587920000001,
          35.4822988
        ]
      },
      "properties": {
        "id": 4439806256,
        "name": "Kalam Police",
        "amenity": "police"
      }
    },
    {
      "type": "Feature",
      "geometry": {
        "type": "Point",
        "coordinates": [
          72.0052746,
          35.2765836
        ]
      },
      "properties": {
        "id": 4439844941,
        "name": "Unnamed",
        "amenity": "police"
      }
    },
    {
      "type": "Feature",
      "geometry": {
        "type": "Point",
        "coordinates": [
          71.4490093,
          30.071604800000003
        ]
      },
      "properties": {
        "id": 4440439090,
        "name": "Malik Zafar Ghangla",
        "addr:housenumber": "2",
        "amenity": "police",
        "name:en": "Malik Zafar Ghangla"
      }
    },
    {
      "type": "Feature",
      "geometry": {
        "type": "Point",
        "coordinates": [
          71.34997790000001,
          29.8289593
        ]
      },
      "properties": {
        "id": 4440562489,
        "name": "Tayyab House",
        "amenity": "police",
        "name:en": "Tayyab House"
      }
    },
    {
      "type": "Feature",
      "geometry": {
        "type": "Point",
        "coordinates": [
          74.41324510000001,
          31.564313400000003
        ]
      },
      "properties": {
        "id": 4447080990,
        "name": "Ambi gali Taj Bagh Lahore",
        "amenity": "police",
        "name:en": "Ambi gali Taj Bagh Lahore"
      }
    },
    {
      "type": "Feature",
      "geometry": {
        "type": "Point",
        "coordinates": [
          72.35973480000001,
          34.765344600000006
        ]
      },
      "properties": {
        "id": 4447626928,
        "name": "District Police Office Swat",
        "addr:city": "Mingora",
        "addr:postcode": "19130",
        "addr:street": "Justic Road",
        "amenity": "police",
        "operator": "oceanmng@live.com"
      }
    },
    {
      "type": "Feature",
      "geometry": {
        "type": "Point",
        "coordinates": [
          72.35968720000001,
          34.770391800000006
        ]
      },
      "properties": {
        "id": 4447626929,
        "name": "Mingora Police Station",
        "addr:city": "Swat City",
        "addr:postcode": "19130",
        "amenity": "police"
      }
    },
    {
      "type": "Feature",
      "geometry": {
        "type": "Point",
        "coordinates": [
          71.5950286,
          34.169393500000005
        ]
      },
      "properties": {
        "id": 4456251496,
        "name": "Police Check Point Adezai",
        "addr:postcode": "24630",
        "addr:street": "shabqadar road",
        "amenity": "police",
        "opening_hours": "24/7",
        "phone": "0916281006"
      }
    },
    {
      "type": "Feature",
      "geometry": {
        "type": "Point",
        "coordinates": [
          71.5743006,
          34.222996900000005
        ]
      },
      "properties": {
        "id": 4456269589,
        "name": "Shabqadar Police Station",
        "addr:housenumber": "01",
        "addr:postcode": "24630",
        "addr:street": "Batagram Road Shabqadar Bazaar",
        "amenity": "police",
        "opening_hours": "24/7",
        "phone": "0916281006"
      }
    },
    {
      "type": "Feature",
      "geometry": {
        "type": "Point",
        "coordinates": [
          71.6092181,
          34.123578200000004
        ]
      },
      "properties": {
        "id": 4456301289,
        "name": "Police Check Point Naguman",
        "addr:postcode": "25000",
        "addr:street": "Naguman",
        "amenity": "police",
        "opening_hours": "24/7",
        "phone": "0912960115"
      }
    },
    {
      "type": "Feature",
      "geometry": {
        "type": "Point",
        "coordinates": [
          71.61261250000001,
          34.103504900000004
        ]
      },
      "properties": {
        "id": 4456301689,
        "name": "Police Station Daudzai",
        "addr:postcode": "25000",
        "addr:street": "Charsadda Road",
        "amenity": "police",
        "opening_hours": "24/7",
        "phone": "0912960115"
      }
    },
    {
      "type": "Feature",
      "geometry": {
        "type": "Point",
        "coordinates": [
          71.54883550000001,
          34.2140478
        ]
      },
      "properties": {
        "id": 4456301889,
        "name": "Police Check Point",
        "addr:postcode": "24630",
        "addr:street": "Shabqadar Road",
        "amenity": "police",
        "opening_hours": "24/7",
        "phone": "0916281006"
      }
    },
    {
      "type": "Feature",
      "geometry": {
        "type": "Point",
        "coordinates": [
          71.5754206,
          34.028088700000005
        ]
      },
      "properties": {
        "id": 4456939994,
        "name": "Police Station Faqirabad",
        "addr:postcode": "25000",
        "addr:street": "Charsadda Road",
        "amenity": "police",
        "name:en": "Police Station Faqirabad",
        "opening_hours": "24/7"
      }
    },
    {
      "type": "Feature",
      "geometry": {
        "type": "Point",
        "coordinates": [
          71.6884886,
          34.1310422
        ]
      },
      "properties": {
        "id": 4456953191,
        "name": "Police Check Point Sardaryab",
        "addr:postcode": "24420",
        "addr:street": "Charsadda Road",
        "amenity": "police",
        "opening_hours": "24/7"
      }
    },
    {
      "type": "Feature",
      "geometry": {
        "type": "Point",
        "coordinates": [
          71.45800940000001,
          33.982607200000004
        ]
      },
      "properties": {
        "id": 4457977803,
        "name": "check post",
        "amenity": "police",
        "name:en": "check post"
      }
    },
    {
      "type": "Feature",
      "geometry": {
        "type": "Point",
        "coordinates": [
          71.4520507,
          33.975470800000004
        ]
      },
      "properties": {
        "id": 4457978606,
        "name": "check post",
        "amenity": "police",
        "name:en": "check post"
      }
    },
    {
      "type": "Feature",
      "geometry": {
        "type": "Point",
        "coordinates": [
          71.4311473,
          33.9752104
        ]
      },
      "properties": {
        "id": 4457978905,
        "name": "check post",
        "amenity": "police",
        "name:en": "check post"
      }
    },
    {
      "type": "Feature",
      "geometry": {
        "type": "Point",
        "coordinates": [
          71.56639340000001,
          34.2198447
        ]
      },
      "properties": {
        "id": 4460012500,
        "name": "DSP Office Shabqadar",
        "addr:postcode": "24630",
        "addr:street": "Shabqadar Bazaar",
        "amenity": "police",
        "opening_hours": "Mo-Sa 10:00-02:00",
        "phone": "0916281302"
      }
    },
    {
      "type": "Feature",
      "geometry": {
        "type": "Point",
        "coordinates": [
          74.5581367,
          31.603023000000004
        ]
      },
      "properties": {
        "id": 4461573589,
        "name": "First Police Checkpoint",
        "amenity": "police",
        "name:en": "First Police Checkpoint"
      }
    },
    {
      "type": "Feature",
      "geometry": {
        "type": "Point",
        "coordinates": [
          68.269259,
          25.402774700000002
        ]
      },
      "properties": {
        "id": 4461777794,
        "name": "Motorway Police Stations",
        "amenity": "police"
      }
    },
    {
      "type": "Feature",
      "geometry": {
        "type": "Point",
        "coordinates": [
          71.4229887,
          33.9964619
        ]
      },
      "properties": {
        "id": 4472730521,
        "name": "check post",
        "amenity": "police",
        "name:en": "check post"
      }
    },
    {
      "type": "Feature",
      "geometry": {
        "type": "Point",
        "coordinates": [
          72.2955663,
          32.2825568
        ]
      },
      "properties": {
        "id": 4472997689,
        "name": "Texi",
        "addr:street": "asif colony",
        "amenity": "police",
        "email": "saqibrana2211@gmail.com",
        "name:en": "Texi",
        "opening_hours": "Mo-Su 10:00-22:00",
        "phone": "03003968022",
        "website": "http://saqibrana2211@gmail.com"
      }
    },
    {
      "type": "Feature",
      "geometry": {
        "type": "Point",
        "coordinates": [
          71.5655703,
          34.2235043
        ]
      },
      "properties": {
        "id": 4476637389,
        "name": "FC Shabqdar",
        "amenity": "police"
      }
    },
    {
      "type": "Feature",
      "geometry": {
        "type": "Point",
        "coordinates": [
          71.5611119,
          34.0104544
        ]
      },
      "properties": {
        "id": 4481034198,
        "name": "Central Jail Peshawar",
        "addr:street": "Saddar RD / صدر روڈ",
        "amenity": "police"
      }
    },
    {
      "type": "Feature",
      "geometry": {
        "type": "Point",
        "coordinates": [
          71.57106660000001,
          34.0168891
        ]
      },
      "properties": {
        "id": 4481034699,
        "name": "Traffic Police Head Quarter",
        "addr:postcode": "25000",
        "addr:street": "Saddar Road",
        "amenity": "police",
        "opening_hours": "Mo-Sa 08:00-17:00"
      }
    },
    {
      "type": "Feature",
      "geometry": {
        "type": "Point",
        "coordinates": [
          71.5657881,
          34.0144907
        ]
      },
      "properties": {
        "id": 4481034700,
        "name": "Army Check Point",
        "addr:postcode": "25000",
        "addr:street": "Grand Trunk Road",
        "amenity": "police",
        "check_date": "2024-10-17"
      }
    },
    {
      "type": "Feature",
      "geometry": {
        "type": "Point",
        "coordinates": [
          71.55282070000001,
          34.0146066
        ]
      },
      "properties": {
        "id": 4481034701,
        "name": "Army Check Point",
        "addr:street": "Grand Trunk Road",
        "amenity": "police"
      }
    },
    {
      "type": "Feature",
      "geometry": {
        "type": "Point",
        "coordinates": [
          71.53040580000001,
          34.006638900000006
        ]
      },
      "properties": {
        "id": 4481034702,
        "name": "Army Check Point",
        "addr:street": "Grand Trunk Road",
        "amenity": "police"
      }
    },
    {
      "type": "Feature",
      "geometry": {
        "type": "Point",
        "coordinates": [
          71.53900010000001,
          29.846158700000004
        ]
      },
      "properties": {
        "id": 4483773195,
        "name": "Toll Plaza Basti Malook",
        "amenity": "police",
        "name:en": "Toll Plaza Basti Malook"
      }
    },
    {
      "type": "Feature",
      "geometry": {
        "type": "Point",
        "coordinates": [
          71.9914047,
          30.327163000000002
        ]
      },
      "properties": {
        "id": 4483783094,
        "name": "Khanewal Toll Plaza",
        "amenity": "police",
        "name:en": "Khanewal Toll Plaza"
      }
    },
    {
      "type": "Feature",
      "geometry": {
        "type": "Point",
        "coordinates": [
          72.8602144,
          30.584528700000003
        ]
      },
      "properties": {
        "id": 4483788289,
        "name": "Harrapa Toll Plaza",
        "amenity": "police",
        "name:en": "Harrapa Toll Plaza"
      }
    },
    {
      "type": "Feature",
      "geometry": {
        "type": "Point",
        "coordinates": [
          72.48302460000001,
          30.972453500000004
        ]
      },
      "properties": {
        "id": 4484017364,
        "name": "City Police Station",
        "addr:city": "Toba Tek Singh",
        "addr:street": "Police Station Road",
        "amenity": "police",
        "operator": "Police"
      }
    },
    {
      "type": "Feature",
      "geometry": {
        "type": "Point",
        "coordinates": [
          71.74299760000001,
          34.1524116
        ]
      },
      "properties": {
        "id": 4484284697,
        "name": "District Jail Charsadda",
        "amenity": "police",
        "name:en": "District Jail Charsadda"
      }
    },
    {
      "type": "Feature",
      "geometry": {
        "type": "Point",
        "coordinates": [
          71.51603630000001,
          34.2139047
        ]
      },
      "properties": {
        "id": 4494372796,
        "name": "Police Station Sru Kalai",
        "addr:postcode": "24630",
        "addr:street": "Shabqdar Road",
        "amenity": "police"
      }
    },
    {
      "type": "Feature",
      "geometry": {
        "type": "Point",
        "coordinates": [
          71.4337685,
          34.1798791
        ]
      },
      "properties": {
        "id": 4494377596,
        "name": "Army Check Point",
        "addr:street": "Warsak Road",
        "amenity": "police"
      }
    },
    {
      "type": "Feature",
      "geometry": {
        "type": "Point",
        "coordinates": [
          71.5052138,
          34.2266217
        ]
      },
      "properties": {
        "id": 4494402593,
        "name": "Police Check Point Yaka Ghund",
        "addr:postcode": "24630",
        "addr:street": "Shabqdar Road",
        "amenity": "police"
      }
    },
    {
      "type": "Feature",
      "geometry": {
        "type": "Point",
        "coordinates": [
          71.5303078,
          34.199060200000005
        ]
      },
      "properties": {
        "id": 4494408091,
        "name": "Police Station Pir Qila",
        "addr:postcode": "24630",
        "addr:street": "Shabqdar Road",
        "amenity": "police"
      }
    },
    {
      "type": "Feature",
      "geometry": {
        "type": "Point",
        "coordinates": [
          71.5050585,
          34.226887700000006
        ]
      },
      "properties": {
        "id": 4494418790,
        "name": "Army Scouts Check Point",
        "addr:street": "Yaka Ghund",
        "amenity": "police"
      }
    },
    {
      "type": "Feature",
      "geometry": {
        "type": "Point",
        "coordinates": [
          71.6432599,
          34.240638100000005
        ]
      },
      "properties": {
        "id": 4494418889,
        "name": "Police Check Point",
        "addr:postcode": "24630",
        "addr:street": "Mirzadher Road",
        "amenity": "police"
      }
    },
    {
      "type": "Feature",
      "geometry": {
        "type": "Point",
        "coordinates": [
          71.43364310000001,
          34.1689158
        ]
      },
      "properties": {
        "id": 4496237190,
        "name": "Police Check Point",
        "addr:street": "Warsak Road",
        "amenity": "police"
      }
    },
    {
      "type": "Feature",
      "geometry": {
        "type": "Point",
        "coordinates": [
          71.57105410000001,
          34.3314893
        ]
      },
      "properties": {
        "id": 4496430990,
        "name": "Police Check Point",
        "addr:street": "Tangi Road",
        "amenity": "police"
      }
    },
    {
      "type": "Feature",
      "geometry": {
        "type": "Point",
        "coordinates": [
          71.59464890000001,
          34.1592326
        ]
      },
      "properties": {
        "id": 4506410696,
        "name": "Police Check Point Mamoo  Khatke",
        "addr:postcode": "25000",
        "addr:street": "shabqadar road",
        "amenity": "police",
        "phone": "0912950316"
      }
    },
    {
      "type": "Feature",
      "geometry": {
        "type": "Point",
        "coordinates": [
          71.59356580000001,
          34.072696400000005
        ]
      },
      "properties": {
        "id": 4514030193,
        "name": "Khazana Police Station",
        "addr:postcode": "25000",
        "addr:street": "Charsadda Road",
        "amenity": "police"
      }
    },
    {
      "type": "Feature",
      "geometry": {
        "type": "Point",
        "coordinates": [
          74.35022640000001,
          32.3318625
        ]
      },
      "properties": {
        "id": 4514140790,
        "name": "تھانہ",
        "addr:city": "Daska",
        "addr:postcode": "51010",
        "addr:street": "Kachehri Road",
        "amenity": "police",
        "name:ar": "قسم الأمن",
        "name:en": "Police Station",
        "name:ur": "تھانہ",
        "opening_hours": "24/7"
      }
    },
    {
      "type": "Feature",
      "geometry": {
        "type": "Point",
        "coordinates": [
          71.5914887,
          34.0149762
        ]
      },
      "properties": {
        "id": 4515365490,
        "name": "Gul Bahar Police Station",
        "addr:postcode": "25000",
        "addr:street": "Gul Bahar RD / گلبہار روڈ",
        "amenity": "police"
      }
    },
    {
      "type": "Feature",
      "geometry": {
        "type": "Point",
        "coordinates": [
          71.5908943,
          34.0150293
        ]
      },
      "properties": {
        "id": 4515384590,
        "name": "Peshawar Driving license Office",
        "addr:postcode": "25000",
        "addr:street": "Grand Trunk Road",
        "amenity": "police",
        "opening_hours": "Mo-Sa 09:00-17:00"
      }
    },
    {
      "type": "Feature",
      "geometry": {
        "type": "Point",
        "coordinates": [
          73.05962210000001,
          33.6847342
        ]
      },
      "properties": {
        "id": 4515618489,
        "name": "moterway driving licenseing",
        "amenity": "police",
        "name:en": "moterway driving licenseing"
      }
    },
    {
      "type": "Feature",
      "geometry": {
        "type": "Point",
        "coordinates": [
          72.50749180000001,
          34.187095400000004
        ]
      },
      "properties": {
        "id": 4515618490,
        "name": "Muhammad Ali house",
        "amenity": "police",
        "email": "alim8400@gmail.com",
        "phone": "03404594394"
      }
    },
    {
      "type": "Feature",
      "geometry": {
        "type": "Point",
        "coordinates": [
          73.601646,
          33.0279411
        ]
      },
      "properties": {
        "id": 4524886100,
        "name": "تھانہ دینہ",
        "addr:city": "دینہ",
        "addr:street": "گرینڈ ٹرنک روڈ",
        "amenity": "police",
        "name:en": "Dina Police Station",
        "name:ur": "تھانہ دینہ"
      }
    },
    {
      "type": "Feature",
      "geometry": {
        "type": "Point",
        "coordinates": [
          75.46312590000001,
          36.8477292
        ]
      },
      "properties": {
        "id": 4529969191,
        "name": "中国边检",
        "addr:street": "喀喇昆仑公路",
        "amenity": "police",
        "name:en": "China Immigration Inspection",
        "name:ur": "چین سرحدی معائنہ"
      }
    },
    {
      "type": "Feature",
      "geometry": {
        "type": "Point",
        "coordinates": [
          73.69871380000001,
          31.450838100000002
        ]
      },
      "properties": {
        "id": 4533586590,
        "name": "Ps sadar nankana",
        "amenity": "police",
        "name:en": "Ps sadar nankana"
      }
    },
    {
      "type": "Feature",
      "geometry": {
        "type": "Point",
        "coordinates": [
          73.6993616,
          31.450723900000003
        ]
      },
      "properties": {
        "id": 4533586591,
        "name": "DPO HOUSE NANKANA",
        "amenity": "police",
        "name:en": "DPO HOUSE NANKANA"
      }
    },
    {
      "type": "Feature",
      "geometry": {
        "type": "Point",
        "coordinates": [
          73.6844075,
          31.533843900000004
        ]
      },
      "properties": {
        "id": 4537843189,
        "name": "CIA CHANDER KOT",
        "amenity": "police",
        "name:en": "CIA CHANDER KOT"
      }
    },
    {
      "type": "Feature",
      "geometry": {
        "type": "Point",
        "coordinates": [
          70.64848190000001,
          32.9253921
        ]
      },
      "properties": {
        "id": 4544929107,
        "name": "police station",
        "amenity": "police"
      }
    },
    {
      "type": "Feature",
      "geometry": {
        "type": "Point",
        "coordinates": [
          74.63025760000001,
          35.576334100000004
        ]
      },
      "properties": {
        "id": 4548034389,
        "name": "Check point",
        "amenity": "police",
        "name:en": "Check point"
      }
    },
    {
      "type": "Feature",
      "geometry": {
        "type": "Point",
        "coordinates": [
          71.55356540000001,
          34.0078143
        ]
      },
      "properties": {
        "id": 4556553889,
        "name": "Police Check Point",
        "addr:postcode": "25000",
        "addr:street": "Fort Road",
        "amenity": "police"
      }
    },
    {
      "type": "Feature",
      "geometry": {
        "type": "Point",
        "coordinates": [
          68.59809750000001,
          27.7805354
        ]
      },
      "properties": {
        "id": 4566592244,
        "name": "Nawabad",
        "amenity": "police"
      }
    },
    {
      "type": "Feature",
      "geometry": {
        "type": "Point",
        "coordinates": [
          73.06104520000001,
          33.6509999
        ]
      },
      "properties": {
        "id": 4568574590,
        "name": "Police checkpoint",
        "amenity": "police",
        "name:en": "Police checkpoint"
      }
    },
    {
      "type": "Feature",
      "geometry": {
        "type": "Point",
        "coordinates": [
          73.09300800000001,
          33.6020017
        ]
      },
      "properties": {
        "id": 4569797789,
        "name": "No 103 ALC,  PAF",
        "amenity": "police",
        "name:en": "No 103 ALC,  PAF"
      }
    },
    {
      "type": "Feature",
      "geometry": {
        "type": "Point",
        "coordinates": [
          71.5503022,
          34.0049781
        ]
      },
      "properties": {
        "id": 4572635390,
        "name": "Army Check Point",
        "addr:postcode": "25000",
        "addr:street": "Mall Road",
        "amenity": "police"
      }
    },
    {
      "type": "Feature",
      "geometry": {
        "type": "Point",
        "coordinates": [
          71.5530169,
          34.0076946
        ]
      },
      "properties": {
        "id": 4572654289,
        "name": "Army Check Point",
        "addr:postcode": "25000",
        "addr:street": "Fort Road",
        "amenity": "police"
      }
    },
    {
      "type": "Feature",
      "geometry": {
        "type": "Point",
        "coordinates": [
          73.06381040000001,
          33.6608303
        ]
      },
      "properties": {
        "id": 4585274790,
        "name": "I-9/4 Police Station",
        "amenity": "police",
        "name:en": "I-9/4 Police Station"
      }
    },
    {
      "type": "Feature",
      "geometry": {
        "type": "Point",
        "coordinates": [
          74.2791385,
          32.749380200000004
        ]
      },
      "properties": {
        "id": 4594121958,
        "name": "Karianwala police station",
        "amenity": "police"
      }
    },
    {
      "type": "Feature",
      "geometry": {
        "type": "Point",
        "coordinates": [
          73.0326859,
          33.6383785
        ]
      },
      "properties": {
        "id": 4607797790,
        "name": "police station mandi",
        "addr:city": "islamabd",
        "amenity": "police",
        "name:en": "police station mandi",
        "opening_hours": "24/7"
      }
    },
    {
      "type": "Feature",
      "geometry": {
        "type": "Point",
        "coordinates": [
          74.3184353,
          31.541720100000003
        ]
      },
      "properties": {
        "id": 4628972690,
        "name": "District camp jail ichhra",
        "addr:street": "savour food",
        "amenity": "police"
      }
    },
    {
      "type": "Feature",
      "geometry": {
        "type": "Point",
        "coordinates": [
          68.2151415,
          27.551333200000002
        ]
      },
      "properties": {
        "id": 4681231991,
        "name": "Unnamed",
        "addr:city": "لاڑکانہ",
        "amenity": "police"
      }
    },
    {
      "type": "Feature",
      "geometry": {
        "type": "Point",
        "coordinates": [
          61.5542615,
          28.975867400000002
        ]
      },
      "properties": {
        "id": 4685538090,
        "name": "تھانہ تفتان",
        "amenity": "police",
        "name:en": "Taftan Police Station",
        "name:ur": "تھانہ تفتان",
        "opening_hours": "24/7"
      }
    },
    {
      "type": "Feature",
      "geometry": {
        "type": "Point",
        "coordinates": [
          67.00765000000001,
          30.198615000000004
        ]
      },
      "properties": {
        "id": 4685539393,
        "name": "government enclave entry",
        "amenity": "police",
        "name:en": "government enclave entry"
      }
    },
    {
      "type": "Feature",
      "geometry": {
        "type": "Point",
        "coordinates": [
          62.741129400000005,
          28.834886800000003
        ]
      },
      "properties": {
        "id": 4685550989,
        "name": "Nok Kundi police station",
        "amenity": "police",
        "name:en": "Nok Kundi police station"
      }
    },
    {
      "type": "Feature",
      "geometry": {
        "type": "Point",
        "coordinates": [
          73.49084710000001,
          33.055678900000004
        ]
      },
      "properties": {
        "id": 4685791993,
        "name": "Patrolling Police Chak Mew",
        "amenity": "police",
        "name:en": "Patrolling Police Chak Mew"
      }
    },
    {
      "type": "Feature",
      "geometry": {
        "type": "Point",
        "coordinates": [
          73.3767323,
          33.173086000000005
        ]
      },
      "properties": {
        "id": 4685792396,
        "name": "Patrolling Police Missa Kaswal",
        "amenity": "police",
        "name:en": "Patrolling Police Missa Kaswal"
      }
    },
    {
      "type": "Feature",
      "geometry": {
        "type": "Point",
        "coordinates": [
          73.6403839,
          33.015818900000006
        ]
      },
      "properties": {
        "id": 4685792590,
        "name": "Patrolling Police Chak Akka",
        "amenity": "police",
        "name:en": "Patrolling Police Chak Akka"
      }
    },
    {
      "type": "Feature",
      "geometry": {
        "type": "Point",
        "coordinates": [
          73.5092491,
          32.6986854
        ]
      },
      "properties": {
        "id": 4686191689,
        "name": "Patrolling Police Misri More",
        "amenity": "police",
        "name:en": "Patrolling Police Misri More"
      }
    },
    {
      "type": "Feature",
      "geometry": {
        "type": "Point",
        "coordinates": [
          73.0380461,
          32.5955546
        ]
      },
      "properties": {
        "id": 4686191789,
        "name": "Patrolling Police Lilla More",
        "amenity": "police",
        "name:en": "Patrolling Police Lilla More"
      }
    },
    {
      "type": "Feature",
      "geometry": {
        "type": "Point",
        "coordinates": [
          67.0604742,
          24.888812100000003
        ]
      },
      "properties": {
        "id": 4734266941,
        "name": "New Town Police Station",
        "addr:city": "Karachi",
        "addr:street": "Stadium Road",
        "amenity": "police"
      }
    },
    {
      "type": "Feature",
      "geometry": {
        "type": "Point",
        "coordinates": [
          67.14833990000001,
          24.887181400000003
        ]
      },
      "properties": {
        "id": 4737620846,
        "name": "Airport Police Station",
        "addr:city": "Karachi",
        "addr:place": "Faisal Cantonment",
        "addr:province": "Sindh",
        "addr:street": "Shahrah e Faisal",
        "amenity": "police"
      }
    },
    {
      "type": "Feature",
      "geometry": {
        "type": "Point",
        "coordinates": [
          67.19303350000001,
          24.8749432
        ]
      },
      "properties": {
        "id": 4737748610,
        "name": "Malir Police Station",
        "addr:city": "Karachi",
        "amenity": "police"
      }
    },
    {
      "type": "Feature",
      "geometry": {
        "type": "Point",
        "coordinates": [
          67.04084560000001,
          24.937566900000004
        ]
      },
      "properties": {
        "id": 4738187736,
        "name": "Hydri Police Station",
        "addr:city": "Karachi",
        "addr:country": "PK",
        "addr:place": "North Nazimabad Block E",
        "addr:province": "Sindh",
        "addr:street": "Yasin Malik Road",
        "amenity": "police"
      }
    },
    {
      "type": "Feature",
      "geometry": {
        "type": "Point",
        "coordinates": [
          73.7581535,
          32.974189800000005
        ]
      },
      "properties": {
        "id": 4741158328,
        "name": "Home",
        "addr:street": "Kala Dev",
        "amenity": "police",
        "name:en": "Home"
      }
    },
    {
      "type": "Feature",
      "geometry": {
        "type": "Point",
        "coordinates": [
          67.1428722,
          25.031976500000003
        ]
      },
      "properties": {
        "id": 4741607552,
        "name": "Gulshan e Maymar Police Station",
        "addr:city": "Karachi",
        "addr:street": "Sector Q",
        "amenity": "police"
      }
    },
    {
      "type": "Feature",
      "geometry": {
        "type": "Point",
        "coordinates": [
          66.96804470000001,
          30.1741391
        ]
      },
      "properties": {
        "id": 4745038422,
        "name": "police post",
        "amenity": "police",
        "name:en": "police post"
      }
    },
    {
      "type": "Feature",
      "geometry": {
        "type": "Point",
        "coordinates": [
          71.9258042,
          30.302456900000003
        ]
      },
      "properties": {
        "id": 4746750724,
        "name": "District police office",
        "amenity": "police",
        "name:en": "District police office"
      }
    },
    {
      "type": "Feature",
      "geometry": {
        "type": "Point",
        "coordinates": [
          71.9245178,
          30.300734500000004
        ]
      },
      "properties": {
        "id": 4746755622,
        "name": "City police station",
        "amenity": "police",
        "name:en": "City police station"
      }
    },
    {
      "type": "Feature",
      "geometry": {
        "type": "Point",
        "coordinates": [
          67.1023358,
          24.9042129
        ]
      },
      "properties": {
        "id": 4758017031,
        "name": "Dalmia Police Chowki",
        "addr:city": "Karachi",
        "amenity": "police"
      }
    },
    {
      "type": "Feature",
      "geometry": {
        "type": "Point",
        "coordinates": [
          67.18418530000001,
          24.884806100000002
        ]
      },
      "properties": {
        "id": 4764643870,
        "name": "Saudabad Police Station",
        "addr:city": "Karachi",
        "addr:street": "Fatima Road",
        "amenity": "police"
      }
    },
    {
      "type": "Feature",
      "geometry": {
        "type": "Point",
        "coordinates": [
          67.20691430000001,
          24.937245700000002
        ]
      },
      "properties": {
        "id": 4767610977,
        "name": "Malir Cantt Police Station",
        "addr:city": "Karachi",
        "amenity": "police"
      }
    },
    {
      "type": "Feature",
      "geometry": {
        "type": "Point",
        "coordinates": [
          67.1456443,
          24.8796864
        ]
      },
      "properties": {
        "id": 4767920574,
        "name": "Shah Faisal Police Station",
        "addr:city": "Karachi",
        "addr:street": "Azeem Pura Road",
        "amenity": "police"
      }
    },
    {
      "type": "Feature",
      "geometry": {
        "type": "Point",
        "coordinates": [
          67.12723740000001,
          24.828016100000003
        ]
      },
      "properties": {
        "id": 4769937742,
        "name": "Nasir Colony Police Choki",
        "addr:city": "Karachi",
        "amenity": "police"
      }
    },
    {
      "type": "Feature",
      "geometry": {
        "type": "Point",
        "coordinates": [
          74.322854,
          31.530350500000004
        ]
      },
      "properties": {
        "id": 4773217026,
        "name": "Ichra Police Station",
        "addr:street": "Ferozepur Road",
        "amenity": "police",
        "opening_hours": "24/7",
        "phone": "042 37581419"
      }
    },
    {
      "type": "Feature",
      "geometry": {
        "type": "Point",
        "coordinates": [
          73.06796270000001,
          33.638047900000004
        ]
      },
      "properties": {
        "id": 4774776641,
        "name": "New town police station",
        "addr:street": "4th Road",
        "amenity": "police",
        "opening_hours": "24/7"
      }
    },
    {
      "type": "Feature",
      "geometry": {
        "type": "Point",
        "coordinates": [
          67.26955480000001,
          24.856592100000004
        ]
      },
      "properties": {
        "id": 4783144479,
        "name": "Shah Latif Police Station",
        "addr:city": "Karachi",
        "addr:street": "National Highway",
        "amenity": "police"
      }
    },
    {
      "type": "Feature",
      "geometry": {
        "type": "Point",
        "coordinates": [
          67.070215,
          24.979089700000003
        ]
      },
      "properties": {
        "id": 4785718475,
        "name": "New Karachi Police Station",
        "addr:city": "Karachi",
        "addr:street": "Godhra Road",
        "amenity": "police"
      }
    },
    {
      "type": "Feature",
      "geometry": {
        "type": "Point",
        "coordinates": [
          67.04783800000001,
          24.932029600000003
        ]
      },
      "properties": {
        "id": 4785718476,
        "name": "North Nazimabad Police Station",
        "addr:city": "Karachi",
        "addr:country": "PK",
        "addr:place": "North Nazimabad Block G",
        "addr:province": "Sindh",
        "addr:street": "Wimbeldon Road",
        "amenity": "police"
      }
    },
    {
      "type": "Feature",
      "geometry": {
        "type": "Point",
        "coordinates": [
          66.99776630000001,
          24.9332692
        ]
      },
      "properties": {
        "id": 4785718477,
        "name": "Mominabad Police Station",
        "addr:city": "Karachi",
        "addr:street": "Badar Chowk Road",
        "amenity": "police"
      }
    },
    {
      "type": "Feature",
      "geometry": {
        "type": "Point",
        "coordinates": [
          67.066686,
          24.848244500000003
        ]
      },
      "properties": {
        "id": 4785718479,
        "name": "Mehmodabad Police Station",
        "addr:city": "Karachi",
        "addr:street": "Mehmoodabad Road",
        "amenity": "police"
      }
    },
    {
      "type": "Feature",
      "geometry": {
        "type": "Point",
        "coordinates": [
          67.0839612,
          24.8433449
        ]
      },
      "properties": {
        "id": 4785718480,
        "name": "Baloch Colony Police Station",
        "addr:city": "Karachi",
        "addr:street": "Shaheed-e-Millat Express Way",
        "amenity": "police"
      }
    },
    {
      "type": "Feature",
      "geometry": {
        "type": "Point",
        "coordinates": [
          67.0749899,
          24.8328573
        ]
      },
      "properties": {
        "id": 4785718483,
        "name": "Defence Police Station",
        "addr:city": "Karachi",
        "addr:country": "PK",
        "addr:place": "DHA Phase 2 Extension",
        "addr:postcode": "75500",
        "addr:province": "Sindh",
        "addr:street": "Korangi Road",
        "amenity": "police"
      }
    },
    {
      "type": "Feature",
      "geometry": {
        "type": "Point",
        "coordinates": [
          67.0652486,
          24.778714800000003
        ]
      },
      "properties": {
        "id": 4785718484,
        "name": "Darakhshan Police Station",
        "addr:city": "Karachi",
        "addr:country": "PK",
        "addr:place": "DHA Phase 8",
        "addr:street": "Saba Ave",
        "amenity": "police"
      }
    },
    {
      "type": "Feature",
      "geometry": {
        "type": "Point",
        "coordinates": [
          67.035048,
          24.837383700000004
        ]
      },
      "properties": {
        "id": 4785718485,
        "name": "Frere Town Police Station",
        "addr:city": "Karachi",
        "addr:country": "PK",
        "addr:place": "Clifton Block 8",
        "addr:street": "Frere Police Station Road",
        "addr:suburb": "Clifton",
        "amenity": "police"
      }
    },
    {
      "type": "Feature",
      "geometry": {
        "type": "Point",
        "coordinates": [
          67.07661990000001,
          24.8987437
        ]
      },
      "properties": {
        "id": 4785718486,
        "name": "Aziz Bhatti Police Station",
        "addr:city": "Karachi",
        "addr:street": "Sir Shah Muhammad Suleman Road",
        "amenity": "police"
      }
    },
    {
      "type": "Feature",
      "geometry": {
        "type": "Point",
        "coordinates": [
          67.1007538,
          24.939028300000004
        ]
      },
      "properties": {
        "id": 4785718489,
        "name": "Mobina Town Police Station",
        "addr:city": "Karachi",
        "addr:street": "Abul Hasan Isphani Road",
        "amenity": "police"
      }
    },
    {
      "type": "Feature",
      "geometry": {
        "type": "Point",
        "coordinates": [
          67.10564830000001,
          24.949782700000004
        ]
      },
      "properties": {
        "id": 4785718490,
        "name": "Gulzar-e-Hijri Police Station",
        "addr:city": "Karachi",
        "addr:street": "Hijri Road",
        "amenity": "police"
      }
    },
    {
      "type": "Feature",
      "geometry": {
        "type": "Point",
        "coordinates": [
          67.0530054,
          24.9856
        ]
      },
      "properties": {
        "id": 4785718491,
        "name": "Ajmer Nagri Police Station",
        "addr:city": "Karachi",
        "addr:street": "Shahrah Noor Jahan",
        "amenity": "police"
      }
    },
    {
      "type": "Feature",
      "geometry": {
        "type": "Point",
        "coordinates": [
          67.0637935,
          25.0210024
        ]
      },
      "properties": {
        "id": 4785718493,
        "name": "Surjani Town Police Station",
        "addr:city": "Karachi",
        "addr:street": "Khwaja Shamsuudin Azeemi Road",
        "amenity": "police"
      }
    },
    {
      "type": "Feature",
      "geometry": {
        "type": "Point",
        "coordinates": [
          67.01818030000001,
          24.8700724
        ]
      },
      "properties": {
        "id": 4785775154,
        "name": "Garden Police Station",
        "addr:city": "کراچی",
        "addr:city:ar": "كراتشي",
        "addr:city:en": "Karachi",
        "addr:city:ks": "کَرٲچی",
        "addr:city:pnb": "کراچی",
        "addr:city:ps": "کراچۍ",
        "addr:city:sd": "ڪراچي",
        "addr:city:ur": "کراچی",
        "addr:street": "Hiranand Street",
        "amenity": "police"
      }
    },
    {
      "type": "Feature",
      "geometry": {
        "type": "Point",
        "coordinates": [
          66.9766719,
          24.820501800000002
        ]
      },
      "properties": {
        "id": 4785775157,
        "name": "Jackson Police Station",
        "addr:city": "Karachi",
        "addr:street": "East  Wharf Road Keamari",
        "amenity": "police"
      }
    },
    {
      "type": "Feature",
      "geometry": {
        "type": "Point",
        "coordinates": [
          67.0217762,
          24.877415700000004
        ]
      },
      "properties": {
        "id": 4785775160,
        "name": "Garden Traffic Police Station",
        "addr:city": "Karachi",
        "addr:street": "Nishtar Road",
        "amenity": "police"
      }
    },
    {
      "type": "Feature",
      "geometry": {
        "type": "Point",
        "coordinates": [
          67.0498427,
          24.891823000000002
        ]
      },
      "properties": {
        "id": 4785775161,
        "name": "PIB Police Station",
        "addr:city": "Karachi",
        "addr:street": "Martin Road",
        "amenity": "police"
      }
    },
    {
      "type": "Feature",
      "geometry": {
        "type": "Point",
        "coordinates": [
          67.0245386,
          24.8466753
        ]
      },
      "properties": {
        "id": 4785775162,
        "name": "PIDC Traffic Police Station",
        "addr:city": "Karachi",
        "addr:street": "Moulvi Tamizuddin Khan Road",
        "amenity": "police"
      }
    },
    {
      "type": "Feature",
      "geometry": {
        "type": "Point",
        "coordinates": [
          67.00497820000001,
          24.8592003
        ]
      },
      "properties": {
        "id": 4785775164,
        "name": "Risala Police Station",
        "addr:city": "Karachi",
        "addr:street": "Nishtar Road",
        "amenity": "police"
      }
    },
    {
      "type": "Feature",
      "geometry": {
        "type": "Point",
        "coordinates": [
          67.02885710000001,
          24.875056100000002
        ]
      },
      "properties": {
        "id": 4785775165,
        "name": "Soldier Bazar Police Station",
        "addr:city": "Karachi",
        "addr:housenumber": "V2GH+5FR",
        "addr:street": "Gule Rana Colony Gul e Rana Colony Soldier Bazaar,",
        "amenity": "police"
      }
    },
    {
      "type": "Feature",
      "geometry": {
        "type": "Point",
        "coordinates": [
          67.0484132,
          24.8580022
        ]
      },
      "properties": {
        "id": 4785775167,
        "name": "Saddar Police Station",
        "addr:city": "Karachi",
        "addr:street": "Shahrah e Faisal",
        "amenity": "police"
      }
    },
    {
      "type": "Feature",
      "geometry": {
        "type": "Point",
        "coordinates": [
          67.01730850000001,
          24.869583000000002
        ]
      },
      "properties": {
        "id": 4785775168,
        "name": "Nabi Bux & Garden Police Station",
        "addr:city": "Karachi",
        "addr:street": "Hiranand Street",
        "amenity": "police"
      }
    },
    {
      "type": "Feature",
      "geometry": {
        "type": "Point",
        "coordinates": [
          66.9968733,
          24.9068299
        ]
      },
      "properties": {
        "id": 4785775169,
        "name": "SITE Police Station",
        "addr:city": "Karachi",
        "addr:street": "Fakhruddin Valika Road",
        "amenity": "police"
      }
    },
    {
      "type": "Feature",
      "geometry": {
        "type": "Point",
        "coordinates": [
          67.1594034,
          24.826817000000002
        ]
      },
      "properties": {
        "id": 4785855519,
        "name": "Awami Colony Police Station Korangi No 4",
        "addr:city": "Karachi",
        "addr:street": "Landhi Road",
        "amenity": "police"
      }
    },
    {
      "type": "Feature",
      "geometry": {
        "type": "Point",
        "coordinates": [
          67.15212000000001,
          24.834135600000003
        ]
      },
      "properties": {
        "id": 4785855520,
        "name": "Anti Narcotics Police Station",
        "addr:city": "Karachi",
        "addr:street": "Landhi Road",
        "amenity": "police"
      }
    },
    {
      "type": "Feature",
      "geometry": {
        "type": "Point",
        "coordinates": [
          67.2149476,
          24.9022773
        ]
      },
      "properties": {
        "id": 4785857322,
        "name": "Khokrapar Police Station",
        "addr:city": "Karachi",
        "addr:street": "Liaqat Road",
        "amenity": "police"
      }
    },
    {
      "type": "Feature",
      "geometry": {
        "type": "Point",
        "coordinates": [
          67.1975374,
          24.9028202
        ]
      },
      "properties": {
        "id": 4785857323,
        "name": "AL FALAH POLICE STATION",
        "addr:city": "Karachi",
        "addr:street": "Begum Khursheed Road",
        "amenity": "police"
      }
    },
    {
      "type": "Feature",
      "geometry": {
        "type": "Point",
        "coordinates": [
          67.1269481,
          24.8874409
        ]
      },
      "properties": {
        "id": 4785857325,
        "name": "Shahrah e Faisal Police Station",
        "addr:city": "Karachi",
        "addr:place": "Faisal Cantonment",
        "addr:province": "Sindh",
        "addr:street": "Shahrah e Faisal",
        "amenity": "police",
        "operator": "Sindh Police"
      }
    },
    {
      "type": "Feature",
      "geometry": {
        "type": "Point",
        "coordinates": [
          67.0836704,
          24.883334400000003
        ]
      },
      "properties": {
        "id": 4785857326,
        "name": "BAHADURABAD Police Station",
        "addr:city": "Karachi",
        "addr:street": "Ameer Khusro Rd",
        "amenity": "police"
      }
    },
    {
      "type": "Feature",
      "geometry": {
        "type": "Point",
        "coordinates": [
          67.0386799,
          24.9847442
        ]
      },
      "properties": {
        "id": 4785857327,
        "name": "Manghopir Police Station",
        "addr:city": "Karachi",
        "addr:street": "Manghopir Road",
        "amenity": "police"
      }
    },
    {
      "type": "Feature",
      "geometry": {
        "type": "Point",
        "coordinates": [
          67.00884160000001,
          24.851853700000003
        ]
      },
      "properties": {
        "id": 4785857328,
        "name": "Aram Bagh Police Station",
        "addr:city": "Karachi",
        "addr:street": "Belasis Street",
        "amenity": "police"
      }
    },
    {
      "type": "Feature",
      "geometry": {
        "type": "Point",
        "coordinates": [
          67.0629332,
          24.916531900000003
        ]
      },
      "properties": {
        "id": 4785857329,
        "name": "Azizabad Police Station",
        "addr:city": "Karachi",
        "addr:country": "PK",
        "addr:housenumber": "FB Area Block 1",
        "addr:place": "FB Area Block 2",
        "addr:street": "Hussainabad Street",
        "addr:suburb": "FB Area",
        "amenity": "police"
      }
    },
    {
      "type": "Feature",
      "geometry": {
        "type": "Point",
        "coordinates": [
          67.0216111,
          24.861877000000003
        ]
      },
      "properties": {
        "id": 4785857331,
        "name": "Preedy Police Station",
        "addr:city": "Karachi",
        "addr:housenumber": "V26C+PM3",
        "addr:street": "Rambagh Quarter Rambagh Quarters,",
        "amenity": "police"
      }
    },
    {
      "type": "Feature",
      "geometry": {
        "type": "Point",
        "coordinates": [
          67.1268591,
          24.8875752
        ]
      },
      "properties": {
        "id": 4785857332,
        "name": "S S P East Office",
        "addr:city": "Karachi",
        "addr:place": "Faisal Cantonment",
        "addr:province": "Sindh",
        "addr:street": "Shahrah e Faisal",
        "amenity": "police",
        "operator": "Sindh Police"
      }
    },
    {
      "type": "Feature",
      "geometry": {
        "type": "Point",
        "coordinates": [
          67.00164720000001,
          24.8616226
        ]
      },
      "properties": {
        "id": 4785857334,
        "name": "Napier Police Station",
        "addr:city": "Karachi",
        "addr:street": "Siddiq wahab Road",
        "amenity": "police"
      }
    },
    {
      "type": "Feature",
      "geometry": {
        "type": "Point",
        "coordinates": [
          66.9951278,
          24.8596867
        ]
      },
      "properties": {
        "id": 4785857335,
        "name": "Baghdadi Police Station",
        "addr:city": "Karachi",
        "addr:street": "Rampart Row",
        "amenity": "police"
      }
    },
    {
      "type": "Feature",
      "geometry": {
        "type": "Point",
        "coordinates": [
          66.9944095,
          24.8594903
        ]
      },
      "properties": {
        "id": 4785857336,
        "name": "Kalri Police Station",
        "addr:city": "Karachi",
        "addr:street": "Rampart Row",
        "amenity": "police"
      }
    },
    {
      "type": "Feature",
      "geometry": {
        "type": "Point",
        "coordinates": [
          67.0318737,
          24.8937218
        ]
      },
      "properties": {
        "id": 4785857338,
        "name": "Gulbahar Police Station",
        "addr:city": "Karachi",
        "addr:street": "Nawab Siddique Ali Khan Road",
        "amenity": "police"
      }
    },
    {
      "type": "Feature",
      "geometry": {
        "type": "Point",
        "coordinates": [
          67.06228780000001,
          24.9680928
        ]
      },
      "properties": {
        "id": 4785866890,
        "name": "Sir Syed Town Police Station",
        "addr:city": "Karachi",
        "addr:street": "Shahrah Sher Shah Suri",
        "amenity": "police"
      }
    },
    {
      "type": "Feature",
      "geometry": {
        "type": "Point",
        "coordinates": [
          67.0874563,
          24.966257300000002
        ]
      },
      "properties": {
        "id": 4785866891,
        "name": "Gabol Town Police Station",
        "addr:city": "Karachi",
        "amenity": "police"
      }
    },
    {
      "type": "Feature",
      "geometry": {
        "type": "Point",
        "coordinates": [
          67.07238720000001,
          24.992000500000003
        ]
      },
      "properties": {
        "id": 4785866892,
        "name": "Bilal Colony Police Station",
        "addr:city": "Karachi",
        "addr:street": "Service Road",
        "amenity": "police"
      }
    },
    {
      "type": "Feature",
      "geometry": {
        "type": "Point",
        "coordinates": [
          67.0733309,
          24.930101900000004
        ]
      },
      "properties": {
        "id": 4785866893,
        "name": "Joharabad Police Station",
        "addr:city": "Karachi",
        "addr:street": "Shah Jahan Avenue",
        "amenity": "police"
      }
    },
    {
      "type": "Feature",
      "geometry": {
        "type": "Point",
        "coordinates": [
          67.0278909,
          24.906036000000004
        ]
      },
      "properties": {
        "id": 4785884157,
        "name": "Rizvia Police Station",
        "addr:city": "Karachi",
        "addr:country": "PK",
        "addr:place": "Nazimabad 1",
        "addr:postcode": "74700",
        "addr:province": "Sindh",
        "addr:street": "Nazimabad 1",
        "amenity": "police"
      }
    },
    {
      "type": "Feature",
      "geometry": {
        "type": "Point",
        "coordinates": [
          67.00572840000001,
          24.938408600000002
        ]
      },
      "properties": {
        "id": 4785884160,
        "name": "Orangi Town Police Station",
        "addr:city": "Karachi",
        "addr:street": "Dr Adeeb Rizvi Road",
        "amenity": "police"
      }
    },
    {
      "type": "Feature",
      "geometry": {
        "type": "Point",
        "coordinates": [
          73.2407118,
          29.7524067
        ]
      },
      "properties": {
        "id": 4787758522,
        "name": "Police Station Dunga Bunga",
        "addr:street": "Bahawalnager-Haroonabad Road",
        "amenity": "police",
        "name:en": "Police Station Dunga Bunga",
        "opening_hours": "24/7"
      }
    },
    {
      "type": "Feature",
      "geometry": {
        "type": "Point",
        "coordinates": [
          64.4063919,
          28.8880638
        ]
      },
      "properties": {
        "id": 4805041124,
        "name": "Dalbandin police",
        "amenity": "police",
        "name:en": "Dalbandin police"
      }
    },
    {
      "type": "Feature",
      "geometry": {
        "type": "Point",
        "coordinates": [
          67.09456610000001,
          24.925553700000002
        ]
      },
      "properties": {
        "id": 4809964498,
        "name": "Gulshan Police Station",
        "addr:city": "Karachi",
        "addr:street": "Allama Shabbir Ahmed Usmani Road",
        "amenity": "police"
      }
    },
    {
      "type": "Feature",
      "geometry": {
        "type": "Point",
        "coordinates": [
          74.3064501,
          31.565211400000003
        ]
      },
      "properties": {
        "id": 4830481631,
        "name": "سنٹرل پولیس آفس",
        "addr:city": "Lahore",
        "addr:postcode": "54000",
        "addr:street": "Nabha Rd",
        "amenity": "police",
        "name:en": "Central Police Office"
      }
    },
    {
      "type": "Feature",
      "geometry": {
        "type": "Point",
        "coordinates": [
          71.7899922,
          35.8542944
        ]
      },
      "properties": {
        "id": 4863341921,
        "name": "Chitral Police station",
        "amenity": "police"
      }
    },
    {
      "type": "Feature",
      "geometry": {
        "type": "Point",
        "coordinates": [
          74.36936150000001,
          32.702283
        ]
      },
      "properties": {
        "id": 4864623048,
        "name": "Tanda Police Station",
        "amenity": "police",
        "name:en": "Tanda Police Station"
      }
    },
    {
      "type": "Feature",
      "geometry": {
        "type": "Point",
        "coordinates": [
          68.72259580000001,
          25.463276800000003
        ]
      },
      "properties": {
        "id": 4883101850,
        "name": "Tando Allahyar Police Station",
        "addr:city": "Tando Allahyar",
        "addr:street": "Capital Cinema Road",
        "amenity": "police"
      }
    },
    {
      "type": "Feature",
      "geometry": {
        "type": "Point",
        "coordinates": [
          68.7169616,
          25.463230300000003
        ]
      },
      "properties": {
        "id": 4883221418,
        "name": "15 Madadgar",
        "addr:city": "Tando Allahyar",
        "addr:street": "Hyderabad Road",
        "amenity": "police"
      }
    },
    {
      "type": "Feature",
      "geometry": {
        "type": "Point",
        "coordinates": [
          68.7121264,
          25.4408762
        ]
      },
      "properties": {
        "id": 4883221420,
        "name": "Police Station Section B",
        "addr:city": "Tando Allahyar",
        "amenity": "police"
      }
    },
    {
      "type": "Feature",
      "geometry": {
        "type": "Point",
        "coordinates": [
          68.6576524,
          25.762483500000002
        ]
      },
      "properties": {
        "id": 4883391240,
        "name": "Tandoadam Police Station",
        "addr:city": "Tando Adam",
        "addr:street": "Tando Adam Bypass",
        "amenity": "police"
      }
    },
    {
      "type": "Feature",
      "geometry": {
        "type": "Point",
        "coordinates": [
          73.0384573,
          33.6850989
        ]
      },
      "properties": {
        "id": 4889712223,
        "name": "Post Office",
        "addr:city": "اسلام آباد",
        "addr:city:ar": "إسلام آباد",
        "addr:city:en": "Islamabad",
        "addr:city:ks": "اِسلام آبادٖ",
        "addr:city:pnb": "اسلام آباد",
        "addr:city:ps": "اسلام آباد",
        "addr:city:sd": "اسلام آباد",
        "addr:city:ur": "اسلام آباد",
        "addr:street": "Gali 90",
        "amenity": "police"
      }
    },
    {
      "type": "Feature",
      "geometry": {
        "type": "Point",
        "coordinates": [
          74.19040890000001,
          32.151642
        ]
      },
      "properties": {
        "id": 4905664957,
        "name": "City Traffic Police",
        "addr:city": "Gujranwala",
        "addr:street": "Grand Trunk Road",
        "amenity": "police"
      }
    },
    {
      "type": "Feature",
      "geometry": {
        "type": "Point",
        "coordinates": [
          74.2001206,
          32.1586835
        ]
      },
      "properties": {
        "id": 4905788803,
        "name": "Sattelite Town Police Station",
        "addr:city": "Gujranwala",
        "addr:street": "Pasrur Road",
        "amenity": "police"
      }
    },
    {
      "type": "Feature",
      "geometry": {
        "type": "Point",
        "coordinates": [
          74.22561520000001,
          31.9591084
        ]
      },
      "properties": {
        "id": 4905907936,
        "name": "Saddar Police Station",
        "addr:city": "Kamoki",
        "addr:street": "Grand Trunk Road",
        "amenity": "police"
      }
    },
    {
      "type": "Feature",
      "geometry": {
        "type": "Point",
        "coordinates": [
          74.25221950000001,
          31.813190700000003
        ]
      },
      "properties": {
        "id": 4907133704,
        "name": "City Police station",
        "addr:city": "Muridke",
        "addr:street": "Grand Trunk Road",
        "amenity": "police"
      }
    },
    {
      "type": "Feature",
      "geometry": {
        "type": "Point",
        "coordinates": [
          74.27271440000001,
          31.700059700000004
        ]
      },
      "properties": {
        "id": 4907504317,
        "name": "Grand Trunk Road گرینڈ ٹرنک روڈ",
        "addr:city": "Kala Shah Kaku",
        "addr:street": "Grand Trunk Road",
        "amenity": "police"
      }
    },
    {
      "type": "Feature",
      "geometry": {
        "type": "Point",
        "coordinates": [
          74.28152700000001,
          31.6527804
        ]
      },
      "properties": {
        "id": 4907505341,
        "name": "Ferozewala Police Station",
        "addr:city": "Ferozwala",
        "addr:street": "Grand Trunk Road",
        "amenity": "police"
      }
    },
    {
      "type": "Feature",
      "geometry": {
        "type": "Point",
        "coordinates": [
          72.33854360000001,
          34.7698363
        ]
      },
      "properties": {
        "id": 4907795559,
        "name": "Rahim Abad Police Station",
        "amenity": "police"
      }
    },
    {
      "type": "Feature",
      "geometry": {
        "type": "Point",
        "coordinates": [
          74.3039047,
          31.573595800000003
        ]
      },
      "properties": {
        "id": 4912439079,
        "name": "City Traffic Police Office",
        "addr:city": "Lahore",
        "addr:street": "Sheikh Abdul Qadir Jillani Road",
        "amenity": "police"
      }
    },
    {
      "type": "Feature",
      "geometry": {
        "type": "Point",
        "coordinates": [
          71.6628039,
          29.394726100000003
        ]
      },
      "properties": {
        "id": 4923821666,
        "name": "Cantt Police Station",
        "addr:city": "BAHAWALPUR",
        "addr:street": "Ghaznavi Road",
        "amenity": "police"
      }
    },
    {
      "type": "Feature",
      "geometry": {
        "type": "Point",
        "coordinates": [
          71.6755859,
          29.4012774
        ]
      },
      "properties": {
        "id": 4923902178,
        "name": "Kotwali Police Station",
        "addr:city": "Bahawalpur",
        "addr:street": "Bund Road (AAM-O-Khas)",
        "amenity": "police"
      }
    },
    {
      "type": "Feature",
      "geometry": {
        "type": "Point",
        "coordinates": [
          72.3585274,
          34.7869961
        ]
      },
      "properties": {
        "id": 4924836807,
        "name": "Tahir Abad",
        "addr:city": "Swat City",
        "addr:postcode": "19130",
        "amenity": "police"
      }
    },
    {
      "type": "Feature",
      "geometry": {
        "type": "Point",
        "coordinates": [
          68.21971540000001,
          27.549413700000002
        ]
      },
      "properties": {
        "id": 4926647830,
        "name": "تھانہ",
        "addr:city": "Larkana",
        "addr:street": "Larkana Naudero Lakhi Highway",
        "amenity": "police",
        "name:ar": "قسم الأمن",
        "name:en": "Police Station",
        "name:ur": "تھانہ"
      }
    },
    {
      "type": "Feature",
      "geometry": {
        "type": "Point",
        "coordinates": [
          70.9113755,
          31.8273584
        ]
      },
      "properties": {
        "id": 4933462222,
        "name": "Emergency Police (15)",
        "amenity": "police",
        "opening_hours": "24/7",
        "phone": "096615"
      }
    },
    {
      "type": "Feature",
      "geometry": {
        "type": "Point",
        "coordinates": [
          73.061981,
          33.6240034
        ]
      },
      "properties": {
        "id": 4942253032,
        "name": "Banni Police station",
        "amenity": "police"
      }
    },
    {
      "type": "Feature",
      "geometry": {
        "type": "Point",
        "coordinates": [
          73.10675130000001,
          33.7272553
        ]
      },
      "properties": {
        "id": 4945722976,
        "name": "Secretariat Police Station",
        "addr:city": "اسلام آباد",
        "addr:city:ar": "إسلام آباد",
        "addr:city:en": "Islamabad",
        "addr:city:ks": "اِسلام آبادٖ",
        "addr:city:pnb": "اسلام آباد",
        "addr:city:ps": "اسلام آباد",
        "addr:city:sd": "اسلام آباد",
        "addr:city:ur": "اسلام آباد",
        "addr:street": "اصفہانی روڈ",
        "amenity": "police",
        "name:es": "Secretaría de la Comisaría de Policía"
      }
    },
    {
      "type": "Feature",
      "geometry": {
        "type": "Point",
        "coordinates": [
          73.03211130000001,
          33.7063075
        ]
      },
      "properties": {
        "id": 4963837814,
        "name": "Traffic Police Office",
        "addr:city": "اسلام آباد",
        "addr:city:ar": "إسلام آباد",
        "addr:city:en": "Islamabad",
        "addr:city:ks": "اِسلام آبادٖ",
        "addr:city:pnb": "اسلام آباد",
        "addr:city:ps": "اسلام آباد",
        "addr:city:sd": "اسلام آباد",
        "addr:city:ur": "اسلام آباد",
        "addr:street": "Agha Shahi (9th) Avenue",
        "amenity": "police"
      }
    },
    {
      "type": "Feature",
      "geometry": {
        "type": "Point",
        "coordinates": [
          68.13211550000001,
          27.3293995
        ]
      },
      "properties": {
        "id": 4967716624,
        "name": "Unnamed",
        "amenity": "police"
      }
    },
    {
      "type": "Feature",
      "geometry": {
        "type": "Point",
        "coordinates": [
          70.65744720000001,
          28.647404100000003
        ]
      },
      "properties": {
        "id": 4968584324,
        "name": "Police station",
        "amenity": "police",
        "name:ar": "مركز شرطة",
        "opening_hours": "24/7"
      }
    },
    {
      "type": "Feature",
      "geometry": {
        "type": "Point",
        "coordinates": [
          71.6841742,
          29.4009922
        ]
      },
      "properties": {
        "id": 4971454326,
        "name": "Police Club",
        "amenity": "police",
        "name:en": "Police Club"
      }
    },
    {
      "type": "Feature",
      "geometry": {
        "type": "Point",
        "coordinates": [
          74.86084220000001,
          35.367025000000005
        ]
      },
      "properties": {
        "id": 5006126324,
        "name": "army check point",
        "addr:street": "Astore - Minimarg Road",
        "amenity": "police",
        "opening_hours": "24/7"
      }
    },
    {
      "type": "Feature",
      "geometry": {
        "type": "Point",
        "coordinates": [
          74.70373780000001,
          35.5445344
        ]
      },
      "properties": {
        "id": 5006126429,
        "name": "check post",
        "addr:street": "Astore - Minimarg Road",
        "amenity": "police",
        "opening_hours": "24/7"
      }
    },
    {
      "type": "Feature",
      "geometry": {
        "type": "Point",
        "coordinates": [
          75.62179090000001,
          35.177362300000006
        ]
      },
      "properties": {
        "id": 5006126440,
        "name": "check post",
        "amenity": "police",
        "name:en": "check post"
      }
    },
    {
      "type": "Feature",
      "geometry": {
        "type": "Point",
        "coordinates": [
          74.08878050000001,
          35.43191160000001
        ]
      },
      "properties": {
        "id": 5006126722,
        "name": "police check post",
        "addr:street": "Karakoram Highway",
        "amenity": "police",
        "opening_hours": "24/7"
      }
    },
    {
      "type": "Feature",
      "geometry": {
        "type": "Point",
        "coordinates": [
          75.74814760000001,
          35.309324100000005
        ]
      },
      "properties": {
        "id": 5008885023,
        "name": "police check post",
        "amenity": "police",
        "name:en": "police check post"
      }
    },
    {
      "type": "Feature",
      "geometry": {
        "type": "Point",
        "coordinates": [
          75.0558187,
          35.634002800000005
        ]
      },
      "properties": {
        "id": 5012376522,
        "name": "police check post",
        "amenity": "police",
        "name:en": "police check post"
      }
    },
    {
      "type": "Feature",
      "geometry": {
        "type": "Point",
        "coordinates": [
          74.297747,
          36.1384051
        ]
      },
      "properties": {
        "id": 5040099426,
        "name": "police check post",
        "amenity": "police",
        "name:en": "police check post"
      }
    },
    {
      "type": "Feature",
      "geometry": {
        "type": "Point",
        "coordinates": [
          74.30731680000001,
          36.2344008
        ]
      },
      "properties": {
        "id": 5040106321,
        "name": "police check post",
        "amenity": "police",
        "name:en": "police check post"
      }
    },
    {
      "type": "Feature",
      "geometry": {
        "type": "Point",
        "coordinates": [
          74.38052780000001,
          31.549517
        ]
      },
      "properties": {
        "id": 5049708721,
        "name": "Saddar Police Station",
        "amenity": "police",
        "name:en": "Saddar Police Station"
      }
    },
    {
      "type": "Feature",
      "geometry": {
        "type": "Point",
        "coordinates": [
          67.0323949,
          24.943815800000003
        ]
      },
      "properties": {
        "id": 5088577345,
        "name": "Noor Jahan Police Station",
        "addr:city": "Karachi",
        "amenity": "police"
      }
    },
    {
      "type": "Feature",
      "geometry": {
        "type": "Point",
        "coordinates": [
          66.9751511,
          24.883474800000002
        ]
      },
      "properties": {
        "id": 5091080689,
        "name": "Police Station S.I.T.E",
        "addr:city": "Karachi",
        "addr:street": "Estate Avenue",
        "amenity": "police"
      }
    },
    {
      "type": "Feature",
      "geometry": {
        "type": "Point",
        "coordinates": [
          66.9224475,
          24.8701067
        ]
      },
      "properties": {
        "id": 5091605505,
        "name": "Mauripur Police Station",
        "addr:city": "کراچی",
        "addr:city:ar": "كراتشي",
        "addr:city:en": "Karachi",
        "addr:city:ks": "کَرٲچی",
        "addr:city:pnb": "کراچی",
        "addr:city:ps": "کراچۍ",
        "addr:city:sd": "ڪراچي",
        "addr:city:ur": "کراچی",
        "addr:street": "Hawks Bay Road",
        "amenity": "police"
      }
    },
    {
      "type": "Feature",
      "geometry": {
        "type": "Point",
        "coordinates": [
          66.99321570000001,
          24.982393000000002
        ]
      },
      "properties": {
        "id": 5100535619,
        "name": "Pakistan Bazar Police Station",
        "addr:city": "Karachi",
        "addr:place": "Orangi Town",
        "amenity": "police"
      }
    },
    {
      "type": "Feature",
      "geometry": {
        "type": "Point",
        "coordinates": [
          67.21425040000001,
          24.8377808
        ]
      },
      "properties": {
        "id": 5103425091,
        "name": "Qaidabad Police Station",
        "addr:city": "Karachi",
        "addr:place": "Landhi",
        "addr:street": "Mehran Highway",
        "amenity": "police"
      }
    },
    {
      "type": "Feature",
      "geometry": {
        "type": "Point",
        "coordinates": [
          67.2151415,
          24.8385788
        ]
      },
      "properties": {
        "id": 5103425096,
        "name": "Sharpao Police Station",
        "addr:city": "Karachi",
        "addr:place": "Landhi",
        "addr:street": "Mehran Highway",
        "amenity": "police"
      }
    },
    {
      "type": "Feature",
      "geometry": {
        "type": "Point",
        "coordinates": [
          74.3681317,
          31.551393800000003
        ]
      },
      "properties": {
        "id": 5103892721,
        "name": "Dharampura Police Station",
        "amenity": "police"
      }
    },
    {
      "type": "Feature",
      "geometry": {
        "type": "Point",
        "coordinates": [
          66.9472315,
          24.920690200000003
        ]
      },
      "properties": {
        "id": 5119465022,
        "name": "Saeedabad Police Station",
        "addr:city": "Kemari Town",
        "addr:street": "Hub Chowki Road",
        "amenity": "police"
      }
    },
    {
      "type": "Feature",
      "geometry": {
        "type": "Point",
        "coordinates": [
          67.04652580000001,
          24.877986900000003
        ]
      },
      "properties": {
        "id": 5129847123,
        "name": "Special Branch Police Station Karachi",
        "amenity": "police"
      }
    },
    {
      "type": "Feature",
      "geometry": {
        "type": "Point",
        "coordinates": [
          67.21589010000001,
          24.984814300000004
        ]
      },
      "properties": {
        "id": 5133037351,
        "name": "Gadap Police Station - Super Highway",
        "addr:city": "Karachi",
        "addr:street": "Super Highway",
        "amenity": "police"
      }
    },
    {
      "type": "Feature",
      "geometry": {
        "type": "Point",
        "coordinates": [
          67.18256650000001,
          24.838013000000004
        ]
      },
      "properties": {
        "id": 5133370635,
        "name": "Landhi Police Station",
        "addr:city": "Karachi",
        "addr:street": "Landhi Road",
        "amenity": "police"
      }
    },
    {
      "type": "Feature",
      "geometry": {
        "type": "Point",
        "coordinates": [
          67.18282210000001,
          24.837683400000003
        ]
      },
      "properties": {
        "id": 5133425774,
        "name": "Landhi Police Lines",
        "addr:city": "Karachi",
        "addr:street": "Landhi Road",
        "amenity": "police"
      }
    },
    {
      "type": "Feature",
      "geometry": {
        "type": "Point",
        "coordinates": [
          74.98319520000001,
          32.2213349
        ]
      },
      "properties": {
        "id": 5140116423,
        "name": "Unnamed",
        "amenity": "police"
      }
    },
    {
      "type": "Feature",
      "geometry": {
        "type": "Point",
        "coordinates": [
          67.027753,
          24.8523482
        ]
      },
      "properties": {
        "id": 5142392449,
        "name": "CPLC - Citizen Police",
        "addr:city": "Saddar Town",
        "addr:street": "Abdullah Haroon Road",
        "amenity": "police"
      }
    },
    {
      "type": "Feature",
      "geometry": {
        "type": "Point",
        "coordinates": [
          67.0780797,
          24.835386900000003
        ]
      },
      "properties": {
        "id": 5144995460,
        "name": "Sindh Reserve Police",
        "addr:city": "Karachi",
        "addr:street": "TCF School Road",
        "amenity": "police"
      }
    },
    {
      "type": "Feature",
      "geometry": {
        "type": "Point",
        "coordinates": [
          67.04822650000001,
          24.858621300000003
        ]
      },
      "properties": {
        "id": 5149506958,
        "name": "Karachi Police Office (KPO)",
        "addr:city": "Karachi",
        "addr:street": "Shahrah e Faisal",
        "amenity": "police"
      }
    },
    {
      "type": "Feature",
      "geometry": {
        "type": "Point",
        "coordinates": [
          67.13067600000001,
          24.803721900000003
        ]
      },
      "properties": {
        "id": 5153777082,
        "name": "HQ Rapid Response Force",
        "addr:city": "Karachi",
        "addr:street": "Korangi Road",
        "amenity": "police"
      }
    },
    {
      "type": "Feature",
      "geometry": {
        "type": "Point",
        "coordinates": [
          67.12609640000001,
          24.838044800000002
        ]
      },
      "properties": {
        "id": 5156526988,
        "name": "CPLC",
        "addr:city": "Karachi",
        "addr:street": "Korangi Road",
        "amenity": "police"
      }
    },
    {
      "type": "Feature",
      "geometry": {
        "type": "Point",
        "coordinates": [
          66.98153620000001,
          24.9584955
        ]
      },
      "properties": {
        "id": 5159216084,
        "name": "Pakistan Bazar Police Chowki",
        "addr:city": "Karachi",
        "addr:street": "Orangi Town",
        "amenity": "police"
      }
    },
    {
      "type": "Feature",
      "geometry": {
        "type": "Point",
        "coordinates": [
          66.9952387,
          24.859284700000003
        ]
      },
      "properties": {
        "id": 5162828836,
        "name": "SSP City District Office",
        "addr:city": "Karachi",
        "addr:street": "Mir Muhammad Balouch Road",
        "amenity": "police"
      }
    },
    {
      "type": "Feature",
      "geometry": {
        "type": "Point",
        "coordinates": [
          74.87900560000001,
          32.225961600000005
        ]
      },
      "properties": {
        "id": 5169294921,
        "name": "Police choki Tapyala",
        "amenity": "police",
        "name:en": "Police choki Tapyala"
      }
    },
    {
      "type": "Feature",
      "geometry": {
        "type": "Point",
        "coordinates": [
          66.919723,
          24.9633703
        ]
      },
      "properties": {
        "id": 5176470449,
        "name": "NH MP Hub Beat",
        "addr:city": "Karachi",
        "addr:street": "Hub Chowki Road",
        "amenity": "police"
      }
    },
    {
      "type": "Feature",
      "geometry": {
        "type": "Point",
        "coordinates": [
          72.84873250000001,
          32.932311600000006
        ]
      },
      "properties": {
        "id": 5192095621,
        "name": "15 traffic police station",
        "addr:street": "Chakwal Talagang Rd",
        "amenity": "police",
        "phone": "000000015"
      }
    },
    {
      "type": "Feature",
      "geometry": {
        "type": "Point",
        "coordinates": [
          71.56582920000001,
          33.5299555
        ]
      },
      "properties": {
        "id": 5216092722,
        "name": "police station bilitang",
        "amenity": "police"
      }
    },
    {
      "type": "Feature",
      "geometry": {
        "type": "Point",
        "coordinates": [
          67.2169058,
          24.8550326
        ]
      },
      "properties": {
        "id": 5217715772,
        "name": "Quaidabad Traffic Section Zone",
        "addr:city": "Karachi",
        "addr:street": "National Highway",
        "amenity": "police"
      }
    },
    {
      "type": "Feature",
      "geometry": {
        "type": "Point",
        "coordinates": [
          67.89893040000001,
          24.750711700000004
        ]
      },
      "properties": {
        "id": 5218044291,
        "name": "Police Station Makli Thatta",
        "addr:city": "مکلی",
        "addr:street": "قومی شاہراہ",
        "amenity": "police"
      }
    },
    {
      "type": "Feature",
      "geometry": {
        "type": "Point",
        "coordinates": [
          67.9270958,
          24.754223600000003
        ]
      },
      "properties": {
        "id": 5218044306,
        "name": "تھانہ",
        "addr:city": "ٹھٹہ",
        "addr:street": "National Highway",
        "amenity": "police",
        "name:ar": "قسم الأمن",
        "name:en": "Police Station",
        "name:ur": "تھانہ"
      }
    },
    {
      "type": "Feature",
      "geometry": {
        "type": "Point",
        "coordinates": [
          68.07354360000001,
          24.915107400000004
        ]
      },
      "properties": {
        "id": 5218044313,
        "name": "Police Station Keenjher Lake",
        "addr:city": "Thatta",
        "addr:street": "National Highway",
        "amenity": "police"
      }
    },
    {
      "type": "Feature",
      "geometry": {
        "type": "Point",
        "coordinates": [
          68.3363135,
          25.3849401
        ]
      },
      "properties": {
        "id": 5219504543,
        "name": "Qasimabad Police Station",
        "addr:city": "حیدرآباد",
        "addr:city:en": "Hyderabad",
        "addr:city:fr": "Hyderâbâd",
        "addr:city:pa": "ਹੈਦਰਾਬਾਦ",
        "addr:city:ur": "حیدرآباد",
        "addr:street": "National Highway",
        "amenity": "police"
      }
    },
    {
      "type": "Feature",
      "geometry": {
        "type": "Point",
        "coordinates": [
          72.0622759,
          34.1895335
        ]
      },
      "properties": {
        "id": 5221900025,
        "name": "B Division Police Station",
        "addr:street": "Mayar-Toru Road",
        "amenity": "police"
      }
    },
    {
      "type": "Feature",
      "geometry": {
        "type": "Point",
        "coordinates": [
          66.9309575,
          24.948935900000002
        ]
      },
      "properties": {
        "id": 5234606707,
        "name": "Saeedabad Police Station",
        "addr:city": "Karachi",
        "addr:street": "Hub Chowki Road",
        "amenity": "police"
      }
    },
    {
      "type": "Feature",
      "geometry": {
        "type": "Point",
        "coordinates": [
          68.34366370000001,
          25.3760766
        ]
      },
      "properties": {
        "id": 5251853751,
        "name": "Citizens Police Liason Committee",
        "addr:city": "حیدرآباد",
        "addr:city:en": "Hyderabad",
        "addr:city:fr": "Hyderâbâd",
        "addr:city:pa": "ਹੈਦਰਾਬਾਦ",
        "addr:city:ur": "حیدرآباد",
        "addr:street": "Autobhan Road",
        "amenity": "police"
      }
    },
    {
      "type": "Feature",
      "geometry": {
        "type": "Point",
        "coordinates": [
          68.82103380000001,
          27.725743500000004
        ]
      },
      "properties": {
        "id": 5251988730,
        "name": "Police Station Abad",
        "addr:city": "Sukkur",
        "addr:street": "IBA Sukkur",
        "amenity": "police"
      }
    },
    {
      "type": "Feature",
      "geometry": {
        "type": "Point",
        "coordinates": [
          68.38980450000001,
          25.3666611
        ]
      },
      "properties": {
        "id": 5252043341,
        "name": "Hyderabad SITE Police Station",
        "addr:city": "حیدرآباد",
        "addr:city:en": "Hyderabad",
        "addr:city:fr": "Hyderâbâd",
        "addr:city:pa": "ਹੈਦਰਾਬਾਦ",
        "addr:city:ur": "حیدرآباد",
        "addr:street": "Hyderabad Badin Road",
        "amenity": "police"
      }
    },
    {
      "type": "Feature",
      "geometry": {
        "type": "Point",
        "coordinates": [
          68.3383158,
          25.414666200000003
        ]
      },
      "properties": {
        "id": 5252214989,
        "name": "Police Station Naseem Nagar Choki",
        "addr:city": "حیدرآباد",
        "addr:city:en": "Hyderabad",
        "addr:city:fr": "Hyderâbâd",
        "addr:city:pa": "ਹੈਦਰਾਬਾਦ",
        "addr:city:ur": "حیدرآباد",
        "addr:street": "Hyderabad Bypass",
        "amenity": "police"
      }
    },
    {
      "type": "Feature",
      "geometry": {
        "type": "Point",
        "coordinates": [
          71.51528540000001,
          33.740681200000004
        ]
      },
      "properties": {
        "id": 5253551022,
        "name": "Army check Point",
        "amenity": "police"
      }
    },
    {
      "type": "Feature",
      "geometry": {
        "type": "Point",
        "coordinates": [
          71.506838,
          33.733833100000005
        ]
      },
      "properties": {
        "id": 5253551023,
        "name": "Army Check Point",
        "amenity": "police"
      }
    },
    {
      "type": "Feature",
      "geometry": {
        "type": "Point",
        "coordinates": [
          68.3635469,
          25.392518100000004
        ]
      },
      "properties": {
        "id": 5253791412,
        "name": "Cantt Police Station",
        "addr:city": "حیدرآباد",
        "addr:city:en": "Hyderabad",
        "addr:city:fr": "Hyderâbâd",
        "addr:city:pa": "ਹੈਦਰਾਬਾਦ",
        "addr:city:ur": "حیدرآباد",
        "addr:street": "Sydena Tahir Saifuddin Road",
        "amenity": "police"
      }
    },
    {
      "type": "Feature",
      "geometry": {
        "type": "Point",
        "coordinates": [
          68.36236500000001,
          25.396614600000003
        ]
      },
      "properties": {
        "id": 5253791420,
        "name": "Police Headquater",
        "addr:city": "حیدرآباد",
        "addr:city:en": "Hyderabad",
        "addr:city:fr": "Hyderâbâd",
        "addr:city:pa": "ਹੈਦਰਾਬਾਦ",
        "addr:city:ur": "حیدرآباد",
        "addr:street": "CMH Road",
        "amenity": "police"
      }
    },
    {
      "type": "Feature",
      "geometry": {
        "type": "Point",
        "coordinates": [
          73.0812776,
          31.423502300000003
        ]
      },
      "properties": {
        "id": 5254067622,
        "name": "CPO Office Faisalabad",
        "addr:city": "فیصل آباد",
        "addr:city:en": "Faisalabad",
        "addr:city:fr": "Faisalabad",
        "addr:city:pa": "ਫ਼ੈਸਲਾਬਾਦ",
        "addr:city:pnb": "فیصل آباد",
        "addr:city:ur": "فیصل آباد",
        "addr:street": "Zila Council Road",
        "amenity": "police"
      }
    },
    {
      "type": "Feature",
      "geometry": {
        "type": "Point",
        "coordinates": [
          73.08393910000001,
          31.418430500000003
        ]
      },
      "properties": {
        "id": 5254067631,
        "name": "Rail Bazar Police Station",
        "addr:city": "فیصل آباد",
        "addr:city:en": "Faisalabad",
        "addr:city:fr": "Faisalabad",
        "addr:city:pa": "ਫ਼ੈਸਲਾਬਾਦ",
        "addr:city:pnb": "فیصل آباد",
        "addr:city:ur": "فیصل آباد",
        "addr:street": "Government College Road",
        "amenity": "police"
      }
    },
    {
      "type": "Feature",
      "geometry": {
        "type": "Point",
        "coordinates": [
          73.07420490000001,
          31.414365300000004
        ]
      },
      "properties": {
        "id": 5254139618,
        "name": "Police Station Jhang Bazar",
        "addr:city": "فیصل آباد",
        "addr:city:en": "Faisalabad",
        "addr:city:fr": "Faisalabad",
        "addr:city:pa": "ਫ਼ੈਸਲਾਬਾਦ",
        "addr:city:pnb": "فیصل آباد",
        "addr:city:ur": "فیصل آباد",
        "addr:street": "Imam Bargah Road",
        "amenity": "police"
      }
    },
    {
      "type": "Feature",
      "geometry": {
        "type": "Point",
        "coordinates": [
          73.0648738,
          31.3919953
        ]
      },
      "properties": {
        "id": 5254213560,
        "name": "Traffic Police Office",
        "addr:city": "فیصل آباد",
        "addr:city:en": "Faisalabad",
        "addr:city:fr": "Faisalabad",
        "addr:city:pa": "ਫ਼ੈਸਲਾਬਾਦ",
        "addr:city:pnb": "فیصل آباد",
        "addr:city:ur": "فیصل آباد",
        "addr:street": "College Road",
        "amenity": "police"
      }
    },
    {
      "type": "Feature",
      "geometry": {
        "type": "Point",
        "coordinates": [
          73.04969220000001,
          31.3843056
        ]
      },
      "properties": {
        "id": 5254213568,
        "name": "Samanabad Police Station Faisalabad",
        "addr:city": "فیصل آباد",
        "addr:city:en": "Faisalabad",
        "addr:city:fr": "Faisalabad",
        "addr:city:pa": "ਫ਼ੈਸਲਾਬਾਦ",
        "addr:city:pnb": "فیصل آباد",
        "addr:city:ur": "فیصل آباد",
        "addr:street": "Risalewala Road",
        "amenity": "police"
      }
    },
    {
      "type": "Feature",
      "geometry": {
        "type": "Point",
        "coordinates": [
          68.31854360000001,
          27.084755500000004
        ]
      },
      "properties": {
        "id": 5255250896,
        "name": "Police Station Halani",
        "addr:city": "Halani",
        "addr:street": "National Highway 5",
        "amenity": "police"
      }
    },
    {
      "type": "Feature",
      "geometry": {
        "type": "Point",
        "coordinates": [
          68.50512590000001,
          27.286010200000003
        ]
      },
      "properties": {
        "id": 5255390980,
        "name": "Ranipur Police Station",
        "addr:city": "Ranipur Riyast",
        "amenity": "police"
      }
    },
    {
      "type": "Feature",
      "geometry": {
        "type": "Point",
        "coordinates": [
          74.3164586,
          31.556495400000003
        ]
      },
      "properties": {
        "id": 5255461645,
        "name": "Mozang Police Station",
        "addr:city": "Lahore",
        "addr:street": "Temple Rd",
        "amenity": "police"
      }
    },
    {
      "type": "Feature",
      "geometry": {
        "type": "Point",
        "coordinates": [
          68.517756,
          27.3557276
        ]
      },
      "properties": {
        "id": 5255508537,
        "name": "تھانہ",
        "addr:city": "Gambat",
        "amenity": "police",
        "name:ar": "قسم الأمن",
        "name:en": "Police Station",
        "name:ur": "تھانہ"
      }
    },
    {
      "type": "Feature",
      "geometry": {
        "type": "Point",
        "coordinates": [
          73.065804,
          31.384862100000003
        ]
      },
      "properties": {
        "id": 5259239786,
        "name": "تھانہ سمن آباد",
        "addr:city": "فیصل آباد",
        "addr:street": "ہسپتال روڈ",
        "amenity": "police",
        "name:en": "Samanabad Police Station",
        "name:ur": "تھانہ سمن آباد"
      }
    },
    {
      "type": "Feature",
      "geometry": {
        "type": "Point",
        "coordinates": [
          73.18608400000001,
          31.564443100000002
        ]
      },
      "properties": {
        "id": 5265379135,
        "name": "Police Station Chak Jhumra",
        "addr:city": "فیصل آباد",
        "addr:city:en": "Faisalabad",
        "addr:city:fr": "Faisalabad",
        "addr:city:pa": "ਫ਼ੈਸਲਾਬਾਦ",
        "addr:city:pnb": "فیصل آباد",
        "addr:city:ur": "فیصل آباد",
        "addr:street": "Chiniot - Chak Jhumra Road",
        "amenity": "police"
      }
    },
    {
      "type": "Feature",
      "geometry": {
        "type": "Point",
        "coordinates": [
          73.064524,
          31.426697200000003
        ]
      },
      "properties": {
        "id": 5265379141,
        "name": "Civil Lines Faisalabad Police Station",
        "addr:city": "فیصل آباد",
        "addr:city:en": "Faisalabad",
        "addr:city:fr": "Faisalabad",
        "addr:city:pa": "ਫ਼ੈਸਲਾਬਾਦ",
        "addr:city:pnb": "فیصل آباد",
        "addr:city:ur": "فیصل آباد",
        "addr:street": "Arif Mehmod Road",
        "amenity": "police"
      }
    },
    {
      "type": "Feature",
      "geometry": {
        "type": "Point",
        "coordinates": [
          74.29010170000001,
          31.478576300000004
        ]
      },
      "properties": {
        "id": 5271726910,
        "name": "Johar Town Police Station",
        "addr:city": "Lahore",
        "addr:street": "Johar Town",
        "amenity": "police"
      }
    },
    {
      "type": "Feature",
      "geometry": {
        "type": "Point",
        "coordinates": [
          73.10375090000001,
          31.492312700000003
        ]
      },
      "properties": {
        "id": 5271956154,
        "name": "Millat Town Police Station",
        "addr:city": "فیصل آباد",
        "addr:city:en": "Faisalabad",
        "addr:city:fr": "Faisalabad",
        "addr:city:pa": "ਫ਼ੈਸਲਾਬਾਦ",
        "addr:city:pnb": "فیصل آباد",
        "addr:city:ur": "فیصل آباد",
        "addr:street": "Millat Road",
        "amenity": "police"
      }
    },
    {
      "type": "Feature",
      "geometry": {
        "type": "Point",
        "coordinates": [
          73.09096140000001,
          31.438395800000002
        ]
      },
      "properties": {
        "id": 5273603405,
        "name": "DSP Traffic Office",
        "addr:city": "فیصل آباد",
        "addr:city:en": "Faisalabad",
        "addr:city:fr": "Faisalabad",
        "addr:city:pa": "ਫ਼ੈਸਲਾਬਾਦ",
        "addr:city:pnb": "فیصل آباد",
        "addr:city:ur": "فیصل آباد",
        "addr:street": "Faisalabad - Sargodha Road",
        "amenity": "police"
      }
    },
    {
      "type": "Feature",
      "geometry": {
        "type": "Point",
        "coordinates": [
          73.0915877,
          31.438508000000002
        ]
      },
      "properties": {
        "id": 5273603406,
        "name": "Police Station Sargodha Road, Faisalabad",
        "addr:city": "فیصل آباد",
        "addr:city:en": "Faisalabad",
        "addr:city:fr": "Faisalabad",
        "addr:city:pa": "ਫ਼ੈਸਲਾਬਾਦ",
        "addr:city:pnb": "فیصل آباد",
        "addr:city:ur": "فیصل آباد",
        "addr:street": "Faisalabad - Sargodha Road",
        "amenity": "police"
      }
    },
    {
      "type": "Feature",
      "geometry": {
        "type": "Point",
        "coordinates": [
          68.3732363,
          25.4106881
        ]
      },
      "properties": {
        "id": 5281877859,
        "name": "Baldia Police Station",
        "addr:city": "حیدرآباد",
        "addr:city:en": "Hyderabad",
        "addr:city:fr": "Hyderâbâd",
        "addr:city:pa": "ਹੈਦਰਾਬਾਦ",
        "addr:city:ur": "حیدرآباد",
        "addr:street": "National Highway",
        "amenity": "police"
      }
    },
    {
      "type": "Feature",
      "geometry": {
        "type": "Point",
        "coordinates": [
          71.5415725,
          33.657233600000005
        ]
      },
      "properties": {
        "id": 5282648721,
        "name": "Army Check Point",
        "amenity": "police"
      }
    },
    {
      "type": "Feature",
      "geometry": {
        "type": "Point",
        "coordinates": [
          71.5297031,
          33.600280500000004
        ]
      },
      "properties": {
        "id": 5287381825,
        "name": "Police Check Point",
        "amenity": "police"
      }
    },
    {
      "type": "Feature",
      "geometry": {
        "type": "Point",
        "coordinates": [
          73.2854968,
          30.886423800000003
        ]
      },
      "properties": {
        "id": 5294849498,
        "name": "Patrolling Post Miran Shah",
        "addr:city": "Mouza Akbar",
        "addr:postcode": "56300",
        "addr:street": "Sahiwal, Bangla Gugera Road",
        "amenity": "police",
        "name:ur": "پٹرولینگ پوسٹ میراں شاہ"
      }
    },
    {
      "type": "Feature",
      "geometry": {
        "type": "Point",
        "coordinates": [
          67.1285273,
          24.915230800000003
        ]
      },
      "properties": {
        "id": 5297001602,
        "name": "FIA NR3C Circle Sindh Zone",
        "addr:city": "Karachi",
        "addr:street": "Johar Road",
        "amenity": "police"
      }
    },
    {
      "type": "Feature",
      "geometry": {
        "type": "Point",
        "coordinates": [
          75.1577125,
          32.2628878
        ]
      },
      "properties": {
        "id": 5304138425,
        "name": "تھانہ",
        "amenity": "police",
        "name:ar": "قسم الأمن",
        "name:en": "Police Station",
        "name:ur": "تھانہ"
      }
    },
    {
      "type": "Feature",
      "geometry": {
        "type": "Point",
        "coordinates": [
          67.0152484,
          30.212372000000002
        ]
      },
      "properties": {
        "id": 5305271123,
        "name": "Quetta Police Headquarters",
        "amenity": "police",
        "name:de": "Polizeihauptquartier"
      }
    },
    {
      "type": "Feature",
      "geometry": {
        "type": "Point",
        "coordinates": [
          66.99605820000001,
          24.844797900000003
        ]
      },
      "properties": {
        "id": 5306005126,
        "name": "Naval Police Station",
        "addr:city": "Karachi",
        "addr:housenumber": "Lalazar",
        "addr:street": "Road Number 1",
        "amenity": "police"
      }
    },
    {
      "type": "Feature",
      "geometry": {
        "type": "Point",
        "coordinates": [
          66.88150370000001,
          25.055629600000003
        ]
      },
      "properties": {
        "id": 5314657048,
        "name": "Police station",
        "addr:city": "Balochistan",
        "addr:housenumber": "Hub",
        "addr:street": "RCD Highway",
        "amenity": "police"
      }
    },
    {
      "type": "Feature",
      "geometry": {
        "type": "Point",
        "coordinates": [
          68.44155860000001,
          25.592559500000004
        ]
      },
      "properties": {
        "id": 5327143121,
        "name": "Matiari Police Station",
        "addr:city": "Mitiari",
        "addr:street": "National Highway",
        "amenity": "police"
      }
    },
    {
      "type": "Feature",
      "geometry": {
        "type": "Point",
        "coordinates": [
          68.1246577,
          26.836249000000002
        ]
      },
      "properties": {
        "id": 5327510915,
        "name": "Naushahro Feroze Police Station",
        "addr:city": "Naushahro Feroze",
        "addr:street": "Naushahro Feroze-Padidan Road",
        "amenity": "police"
      }
    },
    {
      "type": "Feature",
      "geometry": {
        "type": "Point",
        "coordinates": [
          71.61783750000001,
          29.384713
        ]
      },
      "properties": {
        "id": 5334157121,
        "name": "php post fatuwali",
        "addr:street": "samasatta road",
        "amenity": "police"
      }
    },
    {
      "type": "Feature",
      "geometry": {
        "type": "Point",
        "coordinates": [
          71.9708104,
          29.463785100000003
        ]
      },
      "properties": {
        "id": 5334157625,
        "name": "PHP LAL SOHANRA",
        "addr:street": "Hasilpur-Bahawalpur Road",
        "amenity": "police",
        "opening_hours": "24/7",
        "phone": "03407861691"
      }
    },
    {
      "type": "Feature",
      "geometry": {
        "type": "Point",
        "coordinates": [
          66.96728560000001,
          24.9037438
        ]
      },
      "properties": {
        "id": 5336782553,
        "name": "Baldia Police Station",
        "addr:city": "Karachi",
        "addr:street": "Hub Chowki Road",
        "amenity": "police"
      }
    },
    {
      "type": "Feature",
      "geometry": {
        "type": "Point",
        "coordinates": [
          68.8756738,
          27.696279900000004
        ]
      },
      "properties": {
        "id": 5342157121,
        "name": "SSP Office Sukkur",
        "addr:city": "Sukkur",
        "addr:street": "Walis Road",
        "amenity": "police"
      }
    },
    {
      "type": "Feature",
      "geometry": {
        "type": "Point",
        "coordinates": [
          73.15253670000001,
          32.366618300000006
        ]
      },
      "properties": {
        "id": 5383541665,
        "name": "Police Station Miana Gondal",
        "amenity": "police",
        "name:ar": "مركز الشرطة ميانا غوندل"
      }
    },
    {
      "type": "Feature",
      "geometry": {
        "type": "Point",
        "coordinates": [
          65.31716660000001,
          29.003088200000004
        ]
      },
      "properties": {
        "id": 5418162521,
        "name": "Check point",
        "amenity": "police",
        "operator": "Military"
      }
    },
    {
      "type": "Feature",
      "geometry": {
        "type": "Point",
        "coordinates": [
          67.0150292,
          30.2123251
        ]
      },
      "properties": {
        "id": 5429159422,
        "name": "تھانہ",
        "amenity": "police",
        "name:ar": "قسم الأمن",
        "name:en": "Police Station",
        "name:ur": "تھانہ"
      }
    },
    {
      "type": "Feature",
      "geometry": {
        "type": "Point",
        "coordinates": [
          73.0327082,
          33.6383899
        ]
      },
      "properties": {
        "id": 5434425322,
        "name": "Unnamed",
        "amenity": "police"
      }
    },
    {
      "type": "Feature",
      "geometry": {
        "type": "Point",
        "coordinates": [
          68.27097160000001,
          25.3876586
        ]
      },
      "properties": {
        "id": 5606817928,
        "name": "SSP CPLC OFFICE",
        "amenity": "police"
      }
    },
    {
      "type": "Feature",
      "geometry": {
        "type": "Point",
        "coordinates": [
          71.86165500000001,
          34.1756414
        ]
      },
      "properties": {
        "id": 5731672222,
        "name": "Police Station Sardheri",
        "addr:street": "Mardan road Sardheri",
        "amenity": "police",
        "email": "dspsardheri@gmail.com",
        "phone": "0916644737",
        "website": "https://kppolice.gov.pk/"
      }
    },
    {
      "type": "Feature",
      "geometry": {
        "type": "Point",
        "coordinates": [
          73.0068013,
          35.1150633
        ]
      },
      "properties": {
        "id": 5758298222,
        "name": "Police checkpoint",
        "amenity": "police"
      }
    },
    {
      "type": "Feature",
      "geometry": {
        "type": "Point",
        "coordinates": [
          73.2093475,
          35.2466291
        ]
      },
      "properties": {
        "id": 5758298223,
        "name": "Police checkpoint",
        "amenity": "police"
      }
    },
    {
      "type": "Feature",
      "geometry": {
        "type": "Point",
        "coordinates": [
          72.9066911,
          34.9973212
        ]
      },
      "properties": {
        "id": 5758343921,
        "name": "Police checkpoint",
        "amenity": "police"
      }
    },
    {
      "type": "Feature",
      "geometry": {
        "type": "Point",
        "coordinates": [
          68.37014980000001,
          26.677021000000003
        ]
      },
      "properties": {
        "id": 5846945687,
        "name": "shahbaz rajper house",
        "addr:housenumber": "1",
        "addr:street": "Khair Muhammad Mojai street",
        "amenity": "police",
        "name:en": "Shahbaz Rajper House"
      }
    },
    {
      "type": "Feature",
      "geometry": {
        "type": "Point",
        "coordinates": [
          72.8901381,
          36.16108740000001
        ]
      },
      "properties": {
        "id": 6009537585,
        "name": "Phander police station",
        "amenity": "police"
      }
    },
    {
      "type": "Feature",
      "geometry": {
        "type": "Point",
        "coordinates": [
          68.01385370000001,
          27.128209500000004
        ]
      },
      "properties": {
        "id": 6046168590,
        "name": "Nau Goth",
        "amenity": "police"
      }
    },
    {
      "type": "Feature",
      "geometry": {
        "type": "Point",
        "coordinates": [
          74.24405510000001,
          36.116098400000006
        ]
      },
      "properties": {
        "id": 6051385685,
        "name": "check point",
        "amenity": "police"
      }
    },
    {
      "type": "Feature",
      "geometry": {
        "type": "Point",
        "coordinates": [
          71.4785243,
          34.1003715
        ]
      },
      "properties": {
        "id": 6052755286,
        "name": "Mathra Police station",
        "addr:postcode": "25000",
        "amenity": "police"
      }
    },
    {
      "type": "Feature",
      "geometry": {
        "type": "Point",
        "coordinates": [
          68.8664248,
          27.586024000000002
        ]
      },
      "properties": {
        "id": 6091356986,
        "name": "Kandhra Police Station",
        "amenity": "police"
      }
    },
    {
      "type": "Feature",
      "geometry": {
        "type": "Point",
        "coordinates": [
          67.0072863,
          30.175877800000002
        ]
      },
      "properties": {
        "id": 6153606306,
        "name": "Police Station Industrial Area",
        "amenity": "police"
      }
    },
    {
      "type": "Feature",
      "geometry": {
        "type": "Point",
        "coordinates": [
          72.6406766,
          31.561787600000002
        ]
      },
      "properties": {
        "id": 6154961886,
        "name": "Police Station Bhawana",
        "addr:street": "Chiniot Jhang Road",
        "amenity": "police",
        "opening_hours": "24/7"
      }
    },
    {
      "type": "Feature",
      "geometry": {
        "type": "Point",
        "coordinates": [
          74.3677923,
          31.505062100000004
        ]
      },
      "properties": {
        "id": 6204997185,
        "name": "Army Checkpoint",
        "amenity": "police"
      }
    },
    {
      "type": "Feature",
      "geometry": {
        "type": "Point",
        "coordinates": [
          71.7955771,
          34.6321692
        ]
      },
      "properties": {
        "id": 6216645287,
        "name": "Levies Post",
        "amenity": "police"
      }
    },
    {
      "type": "Feature",
      "geometry": {
        "type": "Point",
        "coordinates": [
          71.8856712,
          34.6417543
        ]
      },
      "properties": {
        "id": 6216645294,
        "name": "police station khadagzo",
        "amenity": "police"
      }
    },
    {
      "type": "Feature",
      "geometry": {
        "type": "Point",
        "coordinates": [
          71.8777685,
          34.631762
        ]
      },
      "properties": {
        "id": 6216645300,
        "name": "leavies",
        "amenity": "police"
      }
    },
    {
      "type": "Feature",
      "geometry": {
        "type": "Point",
        "coordinates": [
          71.7847545,
          34.123945600000006
        ]
      },
      "properties": {
        "id": 6218045787,
        "name": "Unnamed",
        "amenity": "police"
      }
    },
    {
      "type": "Feature",
      "geometry": {
        "type": "Point",
        "coordinates": [
          72.5921926,
          33.381162
        ]
      },
      "properties": {
        "id": 6282685185,
        "name": "Check Post Surla",
        "amenity": "police"
      }
    },
    {
      "type": "Feature",
      "geometry": {
        "type": "Point",
        "coordinates": [
          73.15348300000001,
          33.5423824
        ]
      },
      "properties": {
        "id": 6338023588,
        "name": "ANF Regional Directorate North",
        "amenity": "police"
      }
    },
    {
      "type": "Feature",
      "geometry": {
        "type": "Point",
        "coordinates": [
          73.037817,
          33.5904566
        ]
      },
      "properties": {
        "id": 6338026790,
        "name": "ANF HQ",
        "amenity": "police"
      }
    },
    {
      "type": "Feature",
      "geometry": {
        "type": "Point",
        "coordinates": [
          73.6679723,
          31.877532900000002
        ]
      },
      "properties": {
        "id": 6338026795,
        "name": "Hafiz A",
        "amenity": "police"
      }
    },
    {
      "type": "Feature",
      "geometry": {
        "type": "Point",
        "coordinates": [
          73.00156390000001,
          33.649764600000005
        ]
      },
      "properties": {
        "id": 6338029385,
        "name": "NPA",
        "amenity": "police"
      }
    },
    {
      "type": "Feature",
      "geometry": {
        "type": "Point",
        "coordinates": [
          72.21890690000001,
          32.437515100000006
        ]
      },
      "properties": {
        "id": 6355305427,
        "name": "خالق آباد پولیس پیٹرول چوکی",
        "amenity": "police",
        "name:en": "Khaliqabad Patrol Police Choki"
      }
    },
    {
      "type": "Feature",
      "geometry": {
        "type": "Point",
        "coordinates": [
          61.604032700000005,
          29.0746679
        ]
      },
      "properties": {
        "id": 6387209288,
        "name": "Levies Check Post Masiti",
        "addr:postcode": "95000",
        "amenity": "police",
        "name:fa": "لیویز چیک پوسٹ مسیتی، سیندک روڑ"
      }
    },
    {
      "type": "Feature",
      "geometry": {
        "type": "Point",
        "coordinates": [
          73.0575642,
          34.8358013
        ]
      },
      "properties": {
        "id": 6459963325,
        "name": "Banna Police Station",
        "amenity": "police"
      }
    },
    {
      "type": "Feature",
      "geometry": {
        "type": "Point",
        "coordinates": [
          72.03049250000001,
          34.194402200000006
        ]
      },
      "properties": {
        "id": 6493235585,
        "name": "Police Lines Mardan",
        "addr:postcode": "23200",
        "addr:street": "Nisata Road",
        "amenity": "police"
      }
    },
    {
      "type": "Feature",
      "geometry": {
        "type": "Point",
        "coordinates": [
          72.0604759,
          35.3440104
        ]
      },
      "properties": {
        "id": 6534025088,
        "name": "Patrak Police Station",
        "amenity": "police"
      }
    },
    {
      "type": "Feature",
      "geometry": {
        "type": "Point",
        "coordinates": [
          72.00629980000001,
          35.2533432
        ]
      },
      "properties": {
        "id": 6534025385,
        "name": "Check Post",
        "amenity": "police"
      }
    },
    {
      "type": "Feature",
      "geometry": {
        "type": "Point",
        "coordinates": [
          71.79539390000001,
          34.1614577
        ]
      },
      "properties": {
        "id": 6555498521,
        "name": "DPO Charsadda",
        "addr:street": "Mardan Road Charsadda",
        "amenity": "police",
        "opening_hours": "Mo-Fr 08:00-16:00"
      }
    },
    {
      "type": "Feature",
      "geometry": {
        "type": "Point",
        "coordinates": [
          72.55086510000001,
          30.850375000000003
        ]
      },
      "properties": {
        "id": 6568806160,
        "name": "Rajana Police Station",
        "amenity": "police"
      }
    },
    {
      "type": "Feature",
      "geometry": {
        "type": "Point",
        "coordinates": [
          74.85557440000001,
          35.3758884
        ]
      },
      "properties": {
        "id": 6594625187,
        "name": "Forest Checkpoint Khachik",
        "amenity": "police"
      }
    },
    {
      "type": "Feature",
      "geometry": {
        "type": "Point",
        "coordinates": [
          75.91311990000001,
          35.222227700000005
        ]
      },
      "properties": {
        "id": 6596070185,
        "name": "Checkpoint",
        "amenity": "police"
      }
    },
    {
      "type": "Feature",
      "geometry": {
        "type": "Point",
        "coordinates": [
          75.61784490000001,
          35.3064198
        ]
      },
      "properties": {
        "id": 6605939588,
        "name": "Tourist Police Skardu",
        "amenity": "police"
      }
    },
    {
      "type": "Feature",
      "geometry": {
        "type": "Point",
        "coordinates": [
          75.6506226,
          35.294303600000006
        ]
      },
      "properties": {
        "id": 6605940194,
        "name": "Unnamed",
        "amenity": "police"
      }
    },
    {
      "type": "Feature",
      "geometry": {
        "type": "Point",
        "coordinates": [
          72.6783666,
          36.156878500000005
        ]
      },
      "properties": {
        "id": 6628671485,
        "name": "Unnamed",
        "amenity": "police"
      }
    },
    {
      "type": "Feature",
      "geometry": {
        "type": "Point",
        "coordinates": [
          74.45766130000001,
          31.442071400000003
        ]
      },
      "properties": {
        "id": 6645906685,
        "name": "Elite Force Training Center",
        "addr:street": "Bedian Road",
        "amenity": "police"
      }
    },
    {
      "type": "Feature",
      "geometry": {
        "type": "Point",
        "coordinates": [
          69.4458553,
          31.344850100000002
        ]
      },
      "properties": {
        "id": 6685687320,
        "name": "تھانہ",
        "amenity": "police",
        "name:ar": "قسم الأمن",
        "name:en": "Police Station",
        "name:ur": "تھانہ"
      }
    },
    {
      "type": "Feature",
      "geometry": {
        "type": "Point",
        "coordinates": [
          73.065759,
          33.544341800000005
        ]
      },
      "properties": {
        "id": 6741820146,
        "name": "Security Office",
        "amenity": "police"
      }
    },
    {
      "type": "Feature",
      "geometry": {
        "type": "Point",
        "coordinates": [
          71.18003080000001,
          33.272711400000006
        ]
      },
      "properties": {
        "id": 6741920185,
        "name": "تھانہ",
        "amenity": "police",
        "name:ar": "قسم الأمن",
        "name:en": "Police Station",
        "name:ur": "تھانہ"
      }
    },
    {
      "type": "Feature",
      "geometry": {
        "type": "Point",
        "coordinates": [
          71.18013210000001,
          33.272775900000006
        ]
      },
      "properties": {
        "id": 6741920285,
        "name": "تھانہ",
        "amenity": "police",
        "name:ar": "قسم الأمن",
        "name:en": "Police Station",
        "name:ur": "تھانہ"
      }
    },
    {
      "type": "Feature",
      "geometry": {
        "type": "Point",
        "coordinates": [
          73.4048862,
          34.051853200000004
        ]
      },
      "properties": {
        "id": 6746019987,
        "name": "Donga Gali Police Station",
        "addr:street": "Galiyat-Murree Road",
        "amenity": "police"
      }
    },
    {
      "type": "Feature",
      "geometry": {
        "type": "Point",
        "coordinates": [
          73.44034830000001,
          30.859777100000002
        ]
      },
      "properties": {
        "id": 6770943185,
        "name": "Police line okara",
        "amenity": "police"
      }
    },
    {
      "type": "Feature",
      "geometry": {
        "type": "Point",
        "coordinates": [
          71.7479505,
          29.124972300000003
        ]
      },
      "properties": {
        "id": 6875574485,
        "name": "Yazman police station",
        "addr:postcode": "63210",
        "addr:street": "Bahawalpur-Mandi Yazman Road",
        "amenity": "police"
      }
    },
    {
      "type": "Feature",
      "geometry": {
        "type": "Point",
        "coordinates": [
          72.6893019,
          36.160475500000004
        ]
      },
      "properties": {
        "id": 6895766585,
        "name": "GB check post",
        "amenity": "police"
      }
    },
    {
      "type": "Feature",
      "geometry": {
        "type": "Point",
        "coordinates": [
          73.04666490000001,
          29.883032500000002
        ]
      },
      "properties": {
        "id": 6938740457,
        "name": "Thana Madressa",
        "amenity": "police",
        "operator": "Punjab Police"
      }
    },
    {
      "type": "Feature",
      "geometry": {
        "type": "Point",
        "coordinates": [
          74.37815130000001,
          31.504805
        ]
      },
      "properties": {
        "id": 7183614985,
        "name": "Checkpoint",
        "amenity": "police"
      }
    },
    {
      "type": "Feature",
      "geometry": {
        "type": "Point",
        "coordinates": [
          74.55340410000001,
          31.602636800000003
        ]
      },
      "properties": {
        "id": 7185886385,
        "name": "checkpoint",
        "amenity": "police"
      }
    },
    {
      "type": "Feature",
      "geometry": {
        "type": "Point",
        "coordinates": [
          63.55960960000001,
          28.741023700000003
        ]
      },
      "properties": {
        "id": 7227365815,
        "name": "Unnamed",
        "amenity": "police",
        "operator": "Levis"
      }
    },
    {
      "type": "Feature",
      "geometry": {
        "type": "Point",
        "coordinates": [
          64.9087777,
          28.891717500000002
        ]
      },
      "properties": {
        "id": 7227365819,
        "name": "Unnamed",
        "amenity": "police",
        "operator": "Levis"
      }
    },
    {
      "type": "Feature",
      "geometry": {
        "type": "Point",
        "coordinates": [
          66.6012165,
          29.860377600000003
        ]
      },
      "properties": {
        "id": 7227365821,
        "name": "Unnamed",
        "amenity": "police",
        "operator": "Levis"
      }
    },
    {
      "type": "Feature",
      "geometry": {
        "type": "Point",
        "coordinates": [
          73.44400040000001,
          30.810708400000003
        ]
      },
      "properties": {
        "id": 7397676808,
        "name": "Unnamed",
        "amenity": "police"
      }
    },
    {
      "type": "Feature",
      "geometry": {
        "type": "Point",
        "coordinates": [
          66.9804081,
          24.9164682
        ]
      },
      "properties": {
        "id": 7409124805,
        "name": "Azizabad Police Chowki",
        "amenity": "police"
      }
    },
    {
      "type": "Feature",
      "geometry": {
        "type": "Point",
        "coordinates": [
          74.5509858,
          31.277673800000002
        ]
      },
      "properties": {
        "id": 7432956257,
        "name": "Rajoke Police Station",
        "addr:postcode": "143305",
        "amenity": "police"
      }
    },
    {
      "type": "Feature",
      "geometry": {
        "type": "Point",
        "coordinates": [
          74.3283227,
          31.5829738
        ]
      },
      "properties": {
        "id": 7482472682,
        "name": "Yakki Gate Police Station",
        "amenity": "police",
        "operator": "Punjab Police"
      }
    },
    {
      "type": "Feature",
      "geometry": {
        "type": "Point",
        "coordinates": [
          74.1911824,
          32.1571257
        ]
      },
      "properties": {
        "id": 7507288476,
        "name": "Satellite Police",
        "amenity": "police"
      }
    },
    {
      "type": "Feature",
      "geometry": {
        "type": "Point",
        "coordinates": [
          74.09981400000001,
          32.569302500000006
        ]
      },
      "properties": {
        "id": 7527565940,
        "name": "Saddar Police Station Gujrat",
        "amenity": "police"
      }
    },
    {
      "type": "Feature",
      "geometry": {
        "type": "Point",
        "coordinates": [
          74.1108794,
          32.439226700000006
        ]
      },
      "properties": {
        "id": 7530503341,
        "name": "Sadar Police Station",
        "amenity": "police"
      }
    },
    {
      "type": "Feature",
      "geometry": {
        "type": "Point",
        "coordinates": [
          70.77909650000001,
          32.6887436
        ]
      },
      "properties": {
        "id": 7538532210,
        "name": "Sarai Gambila Police Station",
        "amenity": "police",
        "opening_hours": "24/7"
      }
    },
    {
      "type": "Feature",
      "geometry": {
        "type": "Point",
        "coordinates": [
          68.3639409,
          30.693475600000003
        ]
      },
      "properties": {
        "id": 7557141919,
        "name": "DPO Office",
        "amenity": "police"
      }
    },
    {
      "type": "Feature",
      "geometry": {
        "type": "Point",
        "coordinates": [
          72.5166494,
          36.2812695
        ]
      },
      "properties": {
        "id": 7617955685,
        "name": "Unnamed",
        "amenity": "police"
      }
    },
    {
      "type": "Feature",
      "geometry": {
        "type": "Point",
        "coordinates": [
          72.4733317,
          36.1138836
        ]
      },
      "properties": {
        "id": 7617955785,
        "name": "Police checkpost",
        "amenity": "police"
      }
    },
    {
      "type": "Feature",
      "geometry": {
        "type": "Point",
        "coordinates": [
          70.8953785,
          31.871646600000002
        ]
      },
      "properties": {
        "id": 7644485917,
        "name": "Unnamed",
        "amenity": "police"
      }
    },
    {
      "type": "Feature",
      "geometry": {
        "type": "Point",
        "coordinates": [
          72.90673310000001,
          34.997464900000004
        ]
      },
      "properties": {
        "id": 7756375220,
        "name": "Police & Forest Check Points",
        "addr:city": "Kohistan Lower",
        "amenity": "police"
      }
    },
    {
      "type": "Feature",
      "geometry": {
        "type": "Point",
        "coordinates": [
          73.0619463,
          33.6243672
        ]
      },
      "properties": {
        "id": 7783435011,
        "name": "Banni Police Station",
        "amenity": "police"
      }
    },
    {
      "type": "Feature",
      "geometry": {
        "type": "Point",
        "coordinates": [
          72.25101790000001,
          36.2785306
        ]
      },
      "properties": {
        "id": 8065145585,
        "name": "Booni checkpoint",
        "amenity": "police"
      }
    },
    {
      "type": "Feature",
      "geometry": {
        "type": "Point",
        "coordinates": [
          72.4818503,
          36.0465321
        ]
      },
      "properties": {
        "id": 8065145685,
        "name": "Unnamed",
        "amenity": "police"
      }
    },
    {
      "type": "Feature",
      "geometry": {
        "type": "Point",
        "coordinates": [
          72.47768420000001,
          35.074297300000005
        ]
      },
      "properties": {
        "id": 8280566117,
        "name": "Kalkot Police Station",
        "amenity": "police"
      }
    },
    {
      "type": "Feature",
      "geometry": {
        "type": "Point",
        "coordinates": [
          71.8703054,
          34.2336563
        ]
      },
      "properties": {
        "id": 8280575120,
        "name": "Khan Mai Police Station",
        "addr:street": "Charsadda-Takht Bhai Road",
        "amenity": "police"
      }
    },
    {
      "type": "Feature",
      "geometry": {
        "type": "Point",
        "coordinates": [
          72.34739950000001,
          34.789943900000004
        ]
      },
      "properties": {
        "id": 8280575231,
        "name": "پولیس ٹریننگ اسکول",
        "amenity": "police",
        "name:en": "Police Training School",
        "name:ur": "پولیس ٹریننگ اسکول"
      }
    },
    {
      "type": "Feature",
      "geometry": {
        "type": "Point",
        "coordinates": [
          72.0960733,
          34.391433500000005
        ]
      },
      "properties": {
        "id": 8280575433,
        "name": "Katlang Police Station",
        "amenity": "police"
      }
    },
    {
      "type": "Feature",
      "geometry": {
        "type": "Point",
        "coordinates": [
          71.90192180000001,
          34.237866700000005
        ]
      },
      "properties": {
        "id": 8280575825,
        "name": "Saro Shah Police Station",
        "amenity": "police"
      }
    },
    {
      "type": "Feature",
      "geometry": {
        "type": "Point",
        "coordinates": [
          72.3448099,
          34.8065736
        ]
      },
      "properties": {
        "id": 8280878418,
        "name": "Kanju Police Station",
        "amenity": "police"
      }
    },
    {
      "type": "Feature",
      "geometry": {
        "type": "Point",
        "coordinates": [
          72.0768793,
          34.173414
        ]
      },
      "properties": {
        "id": 8380396218,
        "name": "Mayar Police Station",
        "amenity": "police"
      }
    },
    {
      "type": "Feature",
      "geometry": {
        "type": "Point",
        "coordinates": [
          74.34232,
          31.5842145
        ]
      },
      "properties": {
        "id": 8396280095,
        "name": "Misri Shah Police Station",
        "amenity": "police"
      }
    },
    {
      "type": "Feature",
      "geometry": {
        "type": "Point",
        "coordinates": [
          71.5605747,
          34.0033916
        ]
      },
      "properties": {
        "id": 8424760923,
        "name": "Shah Qabool Police",
        "amenity": "police"
      }
    },
    {
      "type": "Feature",
      "geometry": {
        "type": "Point",
        "coordinates": [
          72.26872,
          32.284613
        ]
      },
      "properties": {
        "id": 8786923830,
        "name": "Police Station Jauharabad City",
        "amenity": "police",
        "building": "yes"
      }
    },
    {
      "type": "Feature",
      "geometry": {
        "type": "Point",
        "coordinates": [
          71.90499100000001,
          30.833763100000002
        ]
      },
      "properties": {
        "id": 8812483246,
        "name": "تھانہ",
        "amenity": "police",
        "name:ar": "قسم الأمن",
        "name:en": "Police Station",
        "name:ur": "تھانہ"
      }
    },
    {
      "type": "Feature",
      "geometry": {
        "type": "Point",
        "coordinates": [
          74.21412670000001,
          31.241520400000002
        ]
      },
      "properties": {
        "id": 9235314014,
        "name": "SDPO Office",
        "addr:city": "Raiwind",
        "addr:country": "PK",
        "addr:street": "Kasur Raiwind Road",
        "amenity": "police"
      }
    },
    {
      "type": "Feature",
      "geometry": {
        "type": "Point",
        "coordinates": [
          68.86279280000001,
          27.6936947
        ]
      },
      "properties": {
        "id": 9278399353,
        "name": "A Section Police station",
        "amenity": "police",
        "operator": "Sindh Police"
      }
    },
    {
      "type": "Feature",
      "geometry": {
        "type": "Point",
        "coordinates": [
          73.7472017,
          33.148610100000006
        ]
      },
      "properties": {
        "id": 9407701467,
        "name": "SSP Office",
        "amenity": "police"
      }
    },
    {
      "type": "Feature",
      "geometry": {
        "type": "Point",
        "coordinates": [
          74.1795824,
          32.1579655
        ]
      },
      "properties": {
        "id": 9593558593,
        "name": "Bagbanpura Police Station",
        "amenity": "police"
      }
    },
    {
      "type": "Feature",
      "geometry": {
        "type": "Point",
        "coordinates": [
          74.9451748,
          35.193635500000006
        ]
      },
      "properties": {
        "id": 9772907521,
        "name": "Checkpoint",
        "amenity": "police"
      }
    },
    {
      "type": "Feature",
      "geometry": {
        "type": "Point",
        "coordinates": [
          75.91416930000001,
          35.215799800000006
        ]
      },
      "properties": {
        "id": 9958603617,
        "name": "Check point",
        "amenity": "police",
        "name:en": "Check point"
      }
    },
    {
      "type": "Feature",
      "geometry": {
        "type": "Point",
        "coordinates": [
          69.39929000000001,
          25.398270300000004
        ]
      },
      "properties": {
        "id": 9962824461,
        "name": "تھانہ صالح بھبرو",
        "amenity": "police",
        "name:ur": "تھانہ صالح بھبرو"
      }
    },
    {
      "type": "Feature",
      "geometry": {
        "type": "Point",
        "coordinates": [
          66.98848430000001,
          24.876264900000002
        ]
      },
      "properties": {
        "id": 10137805817,
        "name": "Sindh rangers post",
        "amenity": "police"
      }
    },
    {
      "type": "Feature",
      "geometry": {
        "type": "Point",
        "coordinates": [
          67.02824960000001,
          29.974872500000004
        ]
      },
      "properties": {
        "id": 10199243122,
        "name": "DAGARI CHECK POST",
        "amenity": "police"
      }
    },
    {
      "type": "Feature",
      "geometry": {
        "type": "Point",
        "coordinates": [
          67.4846112,
          29.5347092
        ]
      },
      "properties": {
        "id": 10199248617,
        "name": "DRANJAN CHECK POST",
        "amenity": "police"
      }
    },
    {
      "type": "Feature",
      "geometry": {
        "type": "Point",
        "coordinates": [
          71.4876328,
          34.0108681
        ]
      },
      "properties": {
        "id": 10203931789,
        "name": "Peshawar University Police Station",
        "amenity": "police"
      }
    },
    {
      "type": "Feature",
      "geometry": {
        "type": "Point",
        "coordinates": [
          74.59238610000001,
          35.4941291
        ]
      },
      "properties": {
        "id": 10313290656,
        "name": "Police Office (registration for Fairy Meadows)",
        "amenity": "police"
      }
    },
    {
      "type": "Feature",
      "geometry": {
        "type": "Point",
        "coordinates": [
          67.8214988,
          26.649669600000003
        ]
      },
      "properties": {
        "id": 10316636759,
        "name": "Police Station Noorja",
        "amenity": "police"
      }
    },
    {
      "type": "Feature",
      "geometry": {
        "type": "Point",
        "coordinates": [
          62.338030200000006,
          25.187509000000002
        ]
      },
      "properties": {
        "id": 10752176097,
        "name": "Gwadar Police Station",
        "amenity": "police"
      }
    },
    {
      "type": "Feature",
      "geometry": {
        "type": "Point",
        "coordinates": [
          74.35458360000001,
          31.473670500000004
        ]
      },
      "properties": {
        "id": 10774529163,
        "name": "Police station",
        "amenity": "police"
      }
    },
    {
      "type": "Feature",
      "geometry": {
        "type": "Point",
        "coordinates": [
          75.4587103,
          35.452643800000004
        ]
      },
      "properties": {
        "id": 10811672773,
        "name": "Police checkpoint",
        "amenity": "police"
      }
    },
    {
      "type": "Feature",
      "geometry": {
        "type": "Point",
        "coordinates": [
          74.8289953,
          36.7474998
        ]
      },
      "properties": {
        "id": 10811705373,
        "name": "Custom checkpoint",
        "amenity": "police"
      }
    },
    {
      "type": "Feature",
      "geometry": {
        "type": "Point",
        "coordinates": [
          75.00101590000001,
          36.8634349
        ]
      },
      "properties": {
        "id": 10811710140,
        "name": "Police checkpoint",
        "amenity": "police"
      }
    },
    {
      "type": "Feature",
      "geometry": {
        "type": "Point",
        "coordinates": [
          74.24318930000001,
          36.1176351
        ]
      },
      "properties": {
        "id": 10831664274,
        "name": "Police checkpoint",
        "amenity": "police"
      }
    },
    {
      "type": "Feature",
      "geometry": {
        "type": "Point",
        "coordinates": [
          67.12631320000001,
          24.887424900000003
        ]
      },
      "properties": {
        "id": 10885773464,
        "name": "Unnamed",
        "amenity": "police",
        "operator": "police"
      }
    },
    {
      "type": "Feature",
      "geometry": {
        "type": "Point",
        "coordinates": [
          72.87049320000001,
          34.915682100000005
        ]
      },
      "properties": {
        "id": 11118664805,
        "name": "Unnamed",
        "amenity": "police"
      }
    },
    {
      "type": "Feature",
      "geometry": {
        "type": "Point",
        "coordinates": [
          75.4917638,
          35.707314700000005
        ]
      },
      "properties": {
        "id": 11122069906,
        "name": "Police Check point",
        "amenity": "police"
      }
    },
    {
      "type": "Feature",
      "geometry": {
        "type": "Point",
        "coordinates": [
          74.28113590000001,
          36.83534890000001
        ]
      },
      "properties": {
        "id": 11122077010,
        "name": "Army Checkpoint",
        "amenity": "police"
      }
    },
    {
      "type": "Feature",
      "geometry": {
        "type": "Point",
        "coordinates": [
          76.3105812,
          35.1746612
        ]
      },
      "properties": {
        "id": 11122078206,
        "name": "Unnamed",
        "amenity": "police",
        "name:es": "Police Checkpoint"
      }
    },
    {
      "type": "Feature",
      "geometry": {
        "type": "Point",
        "coordinates": [
          74.243362,
          36.117838600000006
        ]
      },
      "properties": {
        "id": 11158240105,
        "name": "Rangers’ Checkpoint (foreign passport holders need to register here)",
        "amenity": "police"
      }
    },
    {
      "type": "Feature",
      "geometry": {
        "type": "Point",
        "coordinates": [
          71.36278150000001,
          34.0194157
        ]
      },
      "properties": {
        "id": 11160632705,
        "name": "Unnamed",
        "amenity": "police"
      }
    },
    {
      "type": "Feature",
      "geometry": {
        "type": "Point",
        "coordinates": [
          74.5720021,
          31.604070600000004
        ]
      },
      "properties": {
        "id": 11397384987,
        "name": "Unnamed",
        "amenity": "police"
      }
    },
    {
      "type": "Feature",
      "geometry": {
        "type": "Point",
        "coordinates": [
          71.85302320000001,
          33.830113100000005
        ]
      },
      "properties": {
        "id": 11433528269,
        "name": "Unnamed",
        "amenity": "police"
      }
    },
    {
      "type": "Feature",
      "geometry": {
        "type": "Point",
        "coordinates": [
          71.80662120000001,
          33.944077400000005
        ]
      },
      "properties": {
        "id": 11433532269,
        "name": "Unnamed",
        "amenity": "police"
      }
    },
    {
      "type": "Feature",
      "geometry": {
        "type": "Point",
        "coordinates": [
          70.9305813,
          30.771432500000003
        ]
      },
      "properties": {
        "id": 11455226709,
        "name": "Kot Sultan Poice Station",
        "amenity": "police"
      }
    },
    {
      "type": "Feature",
      "geometry": {
        "type": "Point",
        "coordinates": [
          66.4380435,
          30.955043600000003
        ]
      },
      "properties": {
        "id": 11758440856,
        "name": "Unnamed",
        "amenity": "police",
        "government": "customs"
      }
    },
    {
      "type": "Feature",
      "geometry": {
        "type": "Point",
        "coordinates": [
          67.7399364,
          30.827677400000002
        ]
      },
      "properties": {
        "id": 11860641329,
        "name": "Unnamed",
        "amenity": "police",
        "source_url": "https://www.3sat.de/dokumentation/reise/hoch-hinaus-margots-abenteuerliche-reise-himalaya-100.html"
      }
    },
    {
      "type": "Feature",
      "geometry": {
        "type": "Point",
        "coordinates": [
          66.97356590000001,
          24.872478700000002
        ]
      },
      "properties": {
        "id": 11930012111,
        "name": "Shershah Police Station",
        "amenity": "police"
      }
    },
    {
      "type": "Feature",
      "geometry": {
        "type": "Point",
        "coordinates": [
          67.13647230000001,
          24.8284024
        ]
      },
      "properties": {
        "id": 12146175093,
        "name": "R choki",
        "addr:city": "Karachi",
        "addr:street": "R4HP+9H5, Sector 32/C Gulzar Colony Sector 32 B Korangi,",
        "amenity": "police"
      }
    },
    {
      "type": "Feature",
      "geometry": {
        "type": "Point",
        "coordinates": [
          67.1364489,
          24.828496700000002
        ]
      },
      "properties": {
        "id": 12146177207,
        "name": "Police station",
        "addr:city": "Karachi",
        "addr:street": "no.1, 1/2, Sector 32/C Gulzar Colony Sector 32 B Korangi,",
        "amenity": "police"
      }
    },
    {
      "type": "Feature",
      "geometry": {
        "type": "Point",
        "coordinates": [
          67.0370929,
          24.901086300000003
        ]
      },
      "properties": {
        "id": 12154048119,
        "name": "Super Market Police Station & SDPO Gulbahar office",
        "addr:city": "Karachi",
        "addr:street": "Block 1 Liaquatabad Town, Karachi, Karachi City, Sindh 74600, Pakistan",
        "amenity": "police"
      }
    },
    {
      "type": "Feature",
      "geometry": {
        "type": "Point",
        "coordinates": [
          67.0782212,
          24.8367551
        ]
      },
      "properties": {
        "id": 12157560312,
        "name": "Baloch Colony Police Station & SDPO Mehmoodabad",
        "addr:city": "Karachi",
        "addr:street": "Plot K, 12, Phase 1 Defence View Housing Society",
        "amenity": "police"
      }
    },
    {
      "type": "Feature",
      "geometry": {
        "type": "Point",
        "coordinates": [
          67.0419105,
          24.910106700000004
        ]
      },
      "properties": {
        "id": 12158285698,
        "name": "Superintendent of Police",
        "addr:city": "Karachi",
        "addr:street": ", Ibn-e-Sina Rd E, Civil Lines Punjab Colony Nazimabad, Karachi,",
        "amenity": "police"
      }
    },
    {
      "type": "Feature",
      "geometry": {
        "type": "Point",
        "coordinates": [
          67.0335582,
          24.9108215
        ]
      },
      "properties": {
        "id": 12160056341,
        "name": "S.S.P Asif Ahmed Bughio",
        "addr:city": "Karachi",
        "addr:street": "House No#84, Block 4 Nazimabad, Karachi, Karachi City, Sindh 74600, Pakistan",
        "amenity": "police",
        "phone": "03332740185"
      }
    },
    {
      "type": "Feature",
      "geometry": {
        "type": "Point",
        "coordinates": [
          67.03341950000001,
          24.911109000000003
        ]
      },
      "properties": {
        "id": 12160084943,
        "name": "Police Station Nazimabad& SDPO Nazimabad.",
        "addr:city": "Karachi",
        "addr:street": ", Nazimabad No. 4 Block 4 Nazimabad, Karachi,",
        "amenity": "police",
        "phone": "02199260502",
        "website": "http://www.sindhpolice.gov.pk/"
      }
    },
    {
      "type": "Feature",
      "geometry": {
        "type": "Point",
        "coordinates": [
          67.0742378,
          24.832753900000004
        ]
      },
      "properties": {
        "id": 12160260450,
        "name": "CMC (Pvt) Ltd.",
        "addr:city": "Karachi",
        "addr:street": "20-C, Lane 12, Khayaban-e-Ittehad Road, D.H.A Phase II Extension Phase 2 Commercial Area",
        "amenity": "police"
      }
    },
    {
      "type": "Feature",
      "geometry": {
        "type": "Point",
        "coordinates": [
          67.0588738,
          24.8278372
        ]
      },
      "properties": {
        "id": 12167857337,
        "name": "Gizri Police Lines",
        "addr:city": "Karachi",
        "addr:street": "R3H5+5G2, 11th Commercial St, D.H.A. Phase 4 Phase 4 Defence Housing Authority,",
        "amenity": "police"
      }
    },
    {
      "type": "Feature",
      "geometry": {
        "type": "Point",
        "coordinates": [
          67.0231543,
          24.893782400000003
        ]
      },
      "properties": {
        "id": 12172050381,
        "name": "Rizvia Police Station رضویہ پولیس اسٹیشن",
        "addr:city": "Karachi",
        "addr:street": "Gulbahar Eidgah Colony, Karachi, Karachi City, Sindh 74600, Pakistan",
        "amenity": "police"
      }
    },
    {
      "type": "Feature",
      "geometry": {
        "type": "Point",
        "coordinates": [
          71.908612,
          33.908564600000005
        ]
      },
      "properties": {
        "id": 12176283140,
        "name": "Cerat Cement Factory Police Station",
        "amenity": "police"
      }
    },
    {
      "type": "Feature",
      "geometry": {
        "type": "Point",
        "coordinates": [
          67.02216530000001,
          24.869847900000003
        ]
      },
      "properties": {
        "id": 12188176792,
        "name": "Forensics Division, Sindh Police",
        "addr:city": "Karachi",
        "addr:housenumber": "V29C+WV9",
        "addr:street": ", Gazdarabad Police Head Quarters,",
        "amenity": "police"
      }
    },
    {
      "type": "Feature",
      "geometry": {
        "type": "Point",
        "coordinates": [
          67.02220480000001,
          24.8702718
        ]
      },
      "properties": {
        "id": 12194326598,
        "name": "Forensics Division, Sindh Police",
        "addr:city": "Karachi",
        "addr:housenumber": "V29C+WV9",
        "addr:street": ", Gazdarabad Police Head Quarters,",
        "amenity": "police"
      }
    },
    {
      "type": "Feature",
      "geometry": {
        "type": "Point",
        "coordinates": [
          67.0206191,
          24.868784400000003
        ]
      },
      "properties": {
        "id": 12194360128,
        "name": "Garden Police Headquarters",
        "addr:city": "Karachi",
        "addr:housenumber": "V29C+F5V",
        "addr:street": ", Gazdarabad Police Head Quarters,",
        "amenity": "police"
      }
    },
    {
      "type": "Feature",
      "geometry": {
        "type": "Point",
        "coordinates": [
          67.0225592,
          24.869315500000003
        ]
      },
      "properties": {
        "id": 12194422553,
        "name": "DIGP Traffic Office karachi",
        "addr:city": "Karachi",
        "addr:housenumber": "V29C+JXH",
        "addr:street": "، Gazdarabad, Police Head Quarters,",
        "amenity": "police"
      }
    },
    {
      "type": "Feature",
      "geometry": {
        "type": "Point",
        "coordinates": [
          67.0211438,
          24.868652
        ]
      },
      "properties": {
        "id": 12194440828,
        "name": "PHQ South, Garden",
        "addr:city": "Karachi",
        "addr:housenumber": "V29C+CF",
        "addr:street": "Quarter no 4, Block g Type f garden Police Headquarter Saddar, Garden Rd, Police Head Quarters,",
        "amenity": "police"
      }
    },
    {
      "type": "Feature",
      "geometry": {
        "type": "Point",
        "coordinates": [
          67.0206641,
          24.866744
        ]
      },
      "properties": {
        "id": 12194478028,
        "name": "FC Head Quarters line Garden",
        "addr:city": "Karachi",
        "addr:housenumber": "V28C+M6",
        "addr:street": "Gazdarabad Police Head Quarters,",
        "amenity": "police"
      }
    },
    {
      "type": "Feature",
      "geometry": {
        "type": "Point",
        "coordinates": [
          67.0550475,
          24.934839900000004
        ]
      },
      "properties": {
        "id": 12206600442,
        "name": "Ghulam-e-MUSTAFA Sindh government.",
        "addr:city": "karachi",
        "addr:housenumber": "K-293,",
        "addr:street": "Kausar Niazi Colony,",
        "amenity": "police"
      }
    },
    {
      "type": "Feature",
      "geometry": {
        "type": "Point",
        "coordinates": [
          74.14209100000001,
          35.372218700000005
        ]
      },
      "properties": {
        "id": 12208594337,
        "name": "Unnamed",
        "amenity": "police"
      }
    },
    {
      "type": "Feature",
      "geometry": {
        "type": "Point",
        "coordinates": [
          67.0349631,
          24.942466000000003
        ]
      },
      "properties": {
        "id": 12227785195,
        "name": "S.D.P.O. Shadman Office",
        "addr:city": "Karachi",
        "addr:street": "W2RM+WXW, Block R North Nazimabad Town",
        "amenity": "police"
      }
    },
    {
      "type": "Feature",
      "geometry": {
        "type": "Point",
        "coordinates": [
          67.04191800000001,
          24.882249700000003
        ]
      },
      "properties": {
        "id": 12243682992,
        "name": "S.I.U. and P.S. Jamshed",
        "addr:city": "karachi",
        "addr:street": "V2JR+WP2, Jamshed Quarters Allama Binori",
        "amenity": "police"
      }
    },
    {
      "type": "Feature",
      "geometry": {
        "type": "Point",
        "coordinates": [
          67.0417034,
          24.882244300000004
        ]
      },
      "properties": {
        "id": 12243690442,
        "name": "Crime Branch 2",
        "addr:city": "karachi",
        "addr:street": "V2JR+RM4, Jamshed Quarters Allama Binori Town",
        "amenity": "police"
      }
    },
    {
      "type": "Feature",
      "geometry": {
        "type": "Point",
        "coordinates": [
          67.04183160000001,
          24.882420000000003
        ]
      },
      "properties": {
        "id": 12243742709,
        "name": "Police station Jamshed Quarter",
        "addr:city": "karachi",
        "addr:street": "V2JR+WP2, Gokhale Rd, Jamshed Quarters Allama Binori Town,",
        "amenity": "police"
      }
    },
    {
      "type": "Feature",
      "geometry": {
        "type": "Point",
        "coordinates": [
          66.9526907,
          24.9140228
        ]
      },
      "properties": {
        "id": 12284949524,
        "name": "Traffic police",
        "addr:city": "Karachi",
        "addr:street": "Sector 5 Baldia, Karachi, Karachi City, Sindh, Pakistan",
        "amenity": "police",
        "phone": "https://sindhpolice.gov.pk/"
      }
    },
    {
      "type": "Feature",
      "geometry": {
        "type": "Point",
        "coordinates": [
          74.0448207,
          35.1828331
        ]
      },
      "properties": {
        "id": 12309187611,
        "name": "Unnamed",
        "amenity": "police"
      }
    },
    {
      "type": "Feature",
      "geometry": {
        "type": "Point",
        "coordinates": [
          67.01316870000001,
          24.858119700000003
        ]
      },
      "properties": {
        "id": 12318147163,
        "name": "Aram Bagh Traffic Police karachi",
        "addr:city": "Karachi",
        "addr:housenumber": "V257+773",
        "addr:street": ", Muhammad Ali Jinnah Rd, Nanak Wara Nanakwara,",
        "amenity": "police"
      }
    },
    {
      "type": "Feature",
      "geometry": {
        "type": "Point",
        "coordinates": [
          68.0468218,
          28.179391000000003
        ]
      },
      "properties": {
        "id": 12461520614,
        "name": "City Police Station",
        "addr:city": "Usta Muhammad",
        "addr:postcode": "80300",
        "addr:street": "JINNAH ROAD",
        "amenity": "police"
      }
    },
    {
      "type": "Feature",
      "geometry": {
        "type": "Point",
        "coordinates": [
          74.8608365,
          35.3670313
        ]
      },
      "properties": {
        "id": 12492906853,
        "name": "Unnamed",
        "amenity": "police"
      }
    },
    {
      "type": "Feature",
      "geometry": {
        "type": "Point",
        "coordinates": [
          67.84640180000001,
          28.011583500000004
        ]
      },
      "properties": {
        "id": 12522306339,
        "name": "Police Station Gandakha",
        "addr:city": "Gandakha",
        "addr:postcode": "80400",
        "addr:street": "Gandakha Road",
        "amenity": "police"
      }
    },
    {
      "type": "Feature",
      "geometry": {
        "type": "Point",
        "coordinates": [
          67.60788500000001,
          24.2392846
        ]
      },
      "properties": {
        "id": 12586190058,
        "name": "Police Station Keti bandar at baghan",
        "amenity": "police",
        "operator": "Sindh Police"
      }
    },
    {
      "type": "Feature",
      "geometry": {
        "type": "Point",
        "coordinates": [
          67.83930120000001,
          28.167799300000002
        ]
      },
      "properties": {
        "id": 12613375435,
        "name": "Shahwani Chowki",
        "addr:city": "Gandakha Habib kot",
        "addr:postcode": "80400",
        "addr:street": "Shahwani Chowki Road",
        "amenity": "police"
      }
    },
    {
      "type": "Feature",
      "geometry": {
        "type": "Point",
        "coordinates": [
          67.9250832,
          28.154435700000004
        ]
      },
      "properties": {
        "id": 12685835620,
        "name": "Saddar Police Station Usta Muhammad",
        "addr:city": "Usta Muhammad",
        "addr:postcode": "80300",
        "addr:street": "ALI ABAD ROAD",
        "amenity": "police"
      }
    },
    {
      "type": "Feature",
      "geometry": {
        "type": "Point",
        "coordinates": [
          68.53962130000001,
          28.514859800000004
        ]
      },
      "properties": {
        "id": 12703550406,
        "name": "City Police Station, Sohbatpur",
        "addr:city": "Sohbatpur",
        "addr:postcode": "80600",
        "addr:street": "Sohbatpur Road",
        "amenity": "police"
      }
    },
    {
      "type": "Feature",
      "geometry": {
        "type": "Point",
        "coordinates": [
          68.5389244,
          28.519541600000004
        ]
      },
      "properties": {
        "id": 12703559850,
        "name": "S P Office Sohbatpur",
        "addr:city": "SohbatPur",
        "addr:postcode": "80300",
        "addr:street": "DCO Road",
        "amenity": "police"
      }
    },
    {
      "type": "Feature",
      "geometry": {
        "type": "Point",
        "coordinates": [
          73.71536350000001,
          32.073537800000004
        ]
      },
      "properties": {
        "id": 12765804697,
        "name": "DPO Office Hafizabad",
        "amenity": "police",
        "operator": "Chicago Police Department",
        "operator:wikidata": "Q1340186"
      }
    },
    {
      "type": "Feature",
      "geometry": {
        "type": "Point",
        "coordinates": [
          73.68812190000001,
          32.0705582
        ]
      },
      "properties": {
        "id": 12765876902,
        "name": "Police Station City Hafizabad",
        "amenity": "police"
      }
    },
    {
      "type": "Feature",
      "geometry": {
        "type": "Point",
        "coordinates": [
          73.7588953,
          32.0822961
        ]
      },
      "properties": {
        "id": 12765880314,
        "name": "Police Station Sadar Hafizabad",
        "amenity": "police"
      }
    },
    {
      "type": "Feature",
      "geometry": {
        "type": "Point",
        "coordinates": [
          73.58253610000001,
          32.217024300000006
        ]
      },
      "properties": {
        "id": 12765889834,
        "name": "Police Station Vanike Tarar",
        "amenity": "police"
      }
    },
    {
      "type": "Feature",
      "geometry": {
        "type": "Point",
        "coordinates": [
          70.3089166,
          28.423061500000003
        ]
      },
      "properties": {
        "id": 12817070477,
        "name": "Police Station City A Division",
        "addr:city": "رحیم یار خان",
        "addr:postcode": "64200",
        "addr:street": "شاہی روڈ",
        "amenity": "police",
        "opening_hours": "24/7",
        "operator": "Punjab Police",
        "operator:wikidata": "Q7260282"
      }
    },
    {
      "type": "Feature",
      "geometry": {
        "type": "Point",
        "coordinates": [
          67.02346370000001,
          30.200068800000004
        ]
      },
      "properties": {
        "id": 12950344569,
        "name": "Police Line",
        "addr:city": "quetta",
        "addr:postcode": "87300",
        "addr:street": "Gulistan Road",
        "amenity": "police"
      }
    },
    {
      "type": "Feature",
      "geometry": {
        "type": "Point",
        "coordinates": [
          72.6530953,
          30.728487700000002
        ]
      },
      "properties": {
        "id": 13058585886,
        "name": "City Thana Kamalia",
        "amenity": "police",
        "operator": "Punjab Police",
        "operator:wikidata": "Q7260282"
      }
    },
    {
      "type": "Feature",
      "geometry": {
        "type": "Point",
        "coordinates": [
          73.74821290000001,
          33.8511608
        ]
      },
      "properties": {
        "id": 13200835586,
        "name": "Khrick Police Station",
        "addr:city": "Rawalakot",
        "addr:street": "Baladia Adda - Khrick Chungi Road",
        "amenity": "police",
        "official_name": "Police station",
        "opening_hours": "24/7",
        "operator": "AJK Police"
      }
    },
    {
      "type": "Feature",
      "geometry": {
        "type": "Point",
        "coordinates": [
          71.9242268,
          33.4797797
        ]
      },
      "properties": {
        "id": 13296213401,
        "name": "Khushal Ga",
        "amenity": "police"
      }
    },
    {
      "type": "Feature",
      "geometry": {
        "type": "Point",
        "coordinates": [
          72.9613114,
          33.6506216
        ]
      },
      "properties": {
        "id": 13383276801,
        "name": "Sumbal Police Station",
        "amenity": "police"
      }
    },
    {
      "type": "Feature",
      "geometry": {
        "type": "Point",
        "coordinates": [
          67.82540940000001,
          27.960841700000003
        ]
      },
      "properties": {
        "id": 13420494105,
        "name": "P S Imam Bakhsh Jamali",
        "addr:city": "Qubo Saeed Khan",
        "addr:postcode": "78900",
        "amenity": "police"
      }
    },
    {
      "type": "Feature",
      "geometry": {
        "type": "Point",
        "coordinates": [
          68.9482528,
          26.0441514
        ]
      },
      "properties": {
        "id": 13452718117,
        "name": "Unnamed",
        "amenity": "police"
      }
    },
    {
      "type": "Feature",
      "geometry": {
        "type": "Point",
        "coordinates": [
          67.1141166,
          24.900660900000002
        ]
      },
      "properties": {
        "id": 13506956762,
        "name": "Traffic Police Post",
        "amenity": "police"
      }
    },
    {
      "type": "Feature",
      "geometry": {
        "type": "Point",
        "coordinates": [
          74.54524880000001,
          31.5309455
        ]
      },
      "properties": {
        "id": 13509506091,
        "name": "Manhala Police Station",
        "amenity": "police",
        "operator": "Punjab Police",
        "operator:wikidata": "Q7260282"
      }
    },
    {
      "type": "Feature",
      "geometry": {
        "type": "Point",
        "coordinates": [
          67.85828620000001,
          28.0014396
        ]
      },
      "properties": {
        "id": 13515436140,
        "name": "Police Chowki Baalo Bagh Gandakha",
        "addr:city": "Gandakha",
        "addr:postcode": "80400",
        "addr:street": "Gandakha Road",
        "amenity": "police"
      }
    }
  ]
}